,rcdts,type,school_name,district,city,school_type,chronic_absenteeism,chronic_absenteeism_hispanic_or_latino,percent_ela_proficiency,percent_ela_proficiency_hispanic_or_latino,percent_math_proficiency,percent_math_proficiency_hispanic_or_latino,percent_science_proficiency,percent_science_proficiency_hispanic_or_latino,school_name_2,school_id,address,grade_cat,lat,long,geometry,commnty
1,1.50163E+14,School,Addams Elem School,City of Chicago SD 299,Chicago,ELEMENTARY,36.6,36.2,25.4,25.4,17.3,16.5,47.4,47.8,Addams,609772,10810 S AVENUE H,ES,41.6987388,-87.53297604,c(-87.5329760418085,EAST SIDE
2,1.50163E+14,School,Albany Park Multicultural Elem,City of Chicago SD 299,Chicago,ELEMENTARY,28.1,28.8,17,14.4,8.6,7,35.3,35.3,Albany Park,610212,4929 N SAWYER AVE,ES,41.97150444,-87.71060879,c(-87.7106087886504,ALBANY PARK
3,1.50163E+14,School,Alcott Elem School,City of Chicago SD 299,Chicago,ELEMENTARY,12.8,20.3,66.8,43.1,60.1,42,76.9,61.1,Alcott Es,609774,2625 N ORCHARD ST,ES,41.92984985,-87.64641314,c(-87.6464131367854,LINCOLN PARK
4,1.50163E+14,School,Aldridge Elem School,City of Chicago SD 299,Chicago,ELEMENTARY,45.7,NA,15.1,NA,2.1,NA,25,NA,Aldridge,609848,630 E 131ST ST,ES,41.65740497,-87.60647385,c(-87.6064738469045,RIVERDALE
5,1.50163E+14,School,Ariel Elem Community Academy,City of Chicago SD 299,Chicago,ELEMENTARY,46.5,NA,13.5,NA,7.1,NA,16.5,NA,Ariel,609951,1119 E 46TH ST,ES,41.81117346,-87.59750293,c(-87.5975029309484,KENWOOD
6,1.50163E+14,School,Armour Elem School,City of Chicago SD 299,Chicago,ELEMENTARY,28.5,32.2,36.3,33,19.7,15.7,25,19.5,Armour,609777,950 W 33RD PL,ES,41.83385391,-87.65065316,c(-87.6506531564894,BRIDGEPORT
7,1.50163E+14,School,Armstrong G Elem IntL Studies,City of Chicago SD 299,Chicago,ELEMENTARY,28.4,31.1,38.2,31.7,27,20.4,50.9,48.3,Armstrong G,609779,2110 W GREENLEAF AVE,ES,42.01014998,-87.68444183,c(-87.684441827352,WEST RIDGE
8,1.50163E+14,School,Ashburn Community Elem School,City of Chicago SD 299,Chicago,ELEMENTARY,28.3,49.2,17.2,21.3,8.8,8.5,27.8,33.3,Ashburn,610287,8300 S ST LOUIS AVE,ES,41.74235057,-87.70960968,c(-87.7096096820418,ASHBURN
9,1.50163E+14,School,Ashe Elem School,City of Chicago SD 299,Chicago,ELEMENTARY,52.6,NA,7.4,NA,2.7,NA,15.5,NA,Ashe,610268,8505 S INGLESIDE AVE,ES,41.74018379,-87.60117441,c(-87.6011744080356,CHATHAM
10,1.50163E+14,School,Audubon Elem School,City of Chicago SD 299,Chicago,ELEMENTARY,14.9,32.9,53.3,32.8,55.3,30,75.8,54.5,Audubon,609782,3500 N HOYNE AVE,ES,41.94506223,-87.68104105,c(-87.6810410531295,NORTH CENTER
11,1.50163E+14,School,Avalon Park Elem School,City of Chicago SD 299,Chicago,ELEMENTARY,47.2,NA,21.5,NA,3.7,NA,20.5,NA,Avalon Park,609786,8045 S KENWOOD AVE,ES,41.74824699,-87.59165381,c(-87.5916538108424,AVALON PARK
12,1.50163E+14,School,Avondale - Logandale Elementary School,City of Chicago SD 299,Chicago,ELEMENTARY,33.1,30.8,21.2,20.6,11.8,12.7,40.2,41.1,Avondale-Logandale,610325,3212 W GEORGE ST,ES,41.9339702,-87.70804088,c(-87.7080408764898,AVONDALE
13,1.50163E+14,School,Azuela Elem School,City of Chicago SD 299,Chicago,ELEMENTARY,39.3,39.2,37.6,37.7,14.1,14,42.8,42.4,Azuela,610544,4707 W MARQUETTE RD,ES,41.77107907,-87.73992023,c(-87.7399202337778,WEST LAWN
14,1.50163E+14,School,Barnard Elem Comp Math & Sci Ctr,City of Chicago SD 299,Chicago,ELEMENTARY,33.5,NA,21.9,NA,6.7,NA,32.2,NA,Barnard,609788,10354 S CHARLES ST,ES,41.70513101,-87.65807422,c(-87.6580742240545,BEVERLY
15,1.50163E+14,School,Barry Elem School,City of Chicago SD 299,Chicago,ELEMENTARY,37.9,36.9,16.9,16.4,5.1,4.1,42.4,42.1,Barry,609789,2828 N KILBOURN AVE,ES,41.93251058,-87.73938835,c(-87.7393883510253,HERMOSA
16,1.50163E+14,School,Barton Elem School,City of Chicago SD 299,Chicago,ELEMENTARY,48.7,41,6.3,11.8,3,0,16.2,NA,Barton,609790,7650 S WOLCOTT AVE,ES,41.754194,-87.670927,c(-87.6709271287172,AUBURN GRESHAM
17,1.50163E+14,School,Bass Elem School,City of Chicago SD 299,Chicago,ELEMENTARY,48.1,81.3,7.2,NA,2.6,NA,19.1,NA,Bass,609791,1140 W 66TH ST,ES,41.77424645,-87.65353242,c(-87.6535324201886,ENGLEWOOD
18,1.50163E+14,School,Bateman Elem School,City of Chicago SD 299,Chicago,ELEMENTARY,22.9,24.7,26,19.1,16.6,11.2,46.5,40.2,Bateman,609792,4220 N RICHMOND ST,ES,41.95821984,-87.70215096,c(-87.7021509617819,IRVING PARK
19,1.50163E+14,School,Beard Elem School,City of Chicago SD 299,Chicago,ELEMENTARY,NA,NA,NA,NA,NA,NA,NA,NA,Beard,610083,6445 W STRONG ST,ES,41.97012488,-87.78963033,c(-87.789630331566,NORWOOD PARK
20,1.50163E+14,School,Beasley Elem Magnet Academic Ctr,City of Chicago SD 299,Chicago,ELEMENTARY,33,NA,18.2,NA,14.6,NA,39.3,NA,Beasley,610246,5255 S STATE ST,ES,41.79846496,-87.62569158,c(-87.6256915785025,WASHINGTON PARK
21,1.50163E+14,School,Beaubien Elem School,City of Chicago SD 299,Chicago,ELEMENTARY,21.9,33.8,51.4,35.9,42,22.5,72.6,59.7,Beaubien,609796,5025 N LARAMIE AVE,ES,41.97239395,-87.75756504,c(-87.7575650391747,JEFFERSON PARK
22,1.50163E+14,School,Beethoven Elem School,City of Chicago SD 299,Chicago,ELEMENTARY,50.5,NA,6.6,NA,1.3,NA,8,NA,Beethoven,610237,25 W 47TH ST,ES,41.80913476,-87.62713681,c(-87.6271368054457,GRAND BOULEVARD
23,1.50163E+14,School,Beidler Elem School,City of Chicago SD 299,Chicago,ELEMENTARY,40.8,NA,8.6,9.1,2,9.1,19,NA,Beidler,609797,3151 W WALNUT ST,ES,41.88532104,-87.70585481,c(-87.7058548119994,EAST GARFIELD PARK
24,1.50163E+14,School,Belding Elem School,City of Chicago SD 299,Chicago,ELEMENTARY,25.5,32.5,35.8,24.4,37.5,21,55.3,33.3,Belding,609798,4257 N TRIPP AVE,ES,41.95893849,-87.73401973,c(-87.7340197296642,IRVING PARK
25,1.50163E+14,School,Bell Elem School,City of Chicago SD 299,Chicago,ELEMENTARY,14.5,20.5,68.5,48.6,60.8,40.4,86.4,68.4,Bell,609799,3730 N OAKLEY AVE,ES,41.9495298,-87.68601824,c(-87.686018244326,NORTH CENTER
26,1.50163E+14,School,Belmont-Cragin Elem School,City of Chicago SD 299,Chicago,ELEMENTARY,34,33.5,8.8,8.6,7,6.7,17.2,17.2,Belmont-Cragin,609922,6112 W. FULLERTON AVE,ES,41.92160396,-87.75795257,c(-87.757952573593,BELMONT CRAGIN
27,1.50163E+14,School,Bennett Elem School,City of Chicago SD 299,Chicago,ELEMENTARY,35.5,NA,10.9,NA,1.2,NA,16,NA,Bennett,609800,10115 S PRAIRIE AVE,ES,41.71043495,-87.61739046,c(-87.6173904556927,ROSELAND
28,1.50163E+14,School,Black Magnet Elem School,City of Chicago SD 299,Chicago,ELEMENTARY,10.8,NA,50.9,NA,17.4,NA,57.4,NA,Black,610350,9101 S EUCLID AVE,ES,41.72969236,-87.57664295,c(-87.5766429511429,CALUMET HEIGHTS
29,1.50163E+14,School,Blaine Elem School,City of Chicago SD 299,Chicago,ELEMENTARY,10.8,26,71.5,53.2,59.4,35.5,81.5,55.6,Blaine,609803,1420 W GRACE ST,ES,41.95078052,-87.66496784,c(-87.6649678446654,LAKE VIEW
30,1.50163E+14,School,Blair Early Childhood Center,City of Chicago SD 299,Chicago,ELEMENTARY,NA,NA,NA,NA,NA,NA,NA,NA,Blair,610087,6751 W 63RD PL,ES,41.77655627,-87.79060442,c(-87.7906044245619,CLEARING
31,1.50163E+14,School,Bond Elem School,City of Chicago SD 299,Chicago,ELEMENTARY,45.7,NA,15.9,NA,16.9,NA,33.3,NA,Bond,610238,7050 S MAY ST,ES,41.76536057,-87.65301779,c(-87.6530177863465,ENGLEWOOD
32,1.50163E+14,School,Bouchet Elem Math & Science Acad,City of Chicago SD 299,Chicago,ELEMENTARY,52.3,73.3,10.2,NA,5.5,NA,18.2,NA,Bouchet,609815,7355 S JEFFERY BLVD,ES,41.76084748,-87.57607486,c(-87.576074857114,SOUTH SHORE
33,1.50163E+14,School,Bradwell Comm Arts & Sci Elem Sch,City of Chicago SD 299,Chicago,ELEMENTARY,56,NA,9.4,NA,3.8,NA,13.4,NA,Bradwell,609806,7736 S BURNHAM AVE,ES,41.75436513,-87.55714197,c(-87.5571419710256,SOUTH SHORE
34,1.50163E+14,School,Brennemann Elem School,City of Chicago SD 299,Chicago,ELEMENTARY,39,38.1,13.7,7.3,7.3,3.7,31.9,23.3,Brennemann,610242,4251 N CLARENDON AVE,ES,41.95998416,-87.64974917,c(-87.6497491651626,UPTOWN
35,1.50163E+14,School,Brentano Elem Math & Science Acad,City of Chicago SD 299,Chicago,ELEMENTARY,28.8,34.8,33.2,17.8,20.2,6.7,53.3,37.1,Brentano,609809,2723 N FAIRFIELD AVE,ES,41.9309661,-87.6962942,c(-87.6962941983605,LOGAN SQUARE
36,1.50163E+14,School,Bret Harte Elem School,City of Chicago SD 299,Chicago,ELEMENTARY,35,NA,21.7,NA,6.1,NA,29.2,NA,Harte,609969,1556 E 56TH ST,ES,41.79344724,-87.5868546,c(-87.5868545966883,HYDE PARK
37,1.50163E+14,School,Bridge Elem School,City of Chicago SD 299,Chicago,ELEMENTARY,33.3,37.3,28.4,22.1,20.4,12.3,48.4,44.7,Bridge,609810,3800 N NEW ENGLAND AVE,ES,41.94911439,-87.79866892,c(-87.7986689205592,DUNNING
38,1.50163E+14,School,Bright Elem School,City of Chicago SD 299,Chicago,ELEMENTARY,59.8,53.4,15.3,20.9,6.1,4.7,17.4,8.3,Bright,609811,10740 S CALHOUN AVE,ES,41.69972622,-87.56208423,c(-87.5620842299844,SOUTH DEERING
39,1.50163E+14,School,Brighton Park Elem School,City of Chicago SD 299,Chicago,ELEMENTARY,41.6,41.2,20.2,20.4,7.6,7,42.2,43.1,Brighton Park,610317,3825 S WASHTENAW AVE,ES,41.8239,-87.69207693,c(-87.6920769300629,BRIGHTON PARK
40,1.50163E+14,School,Bronzeville Classical Elementary School,City of Chicago SD 299,Chicago,ELEMENTARY,6.8,NA,75.9,66.7,59,58.3,80.4,NA,Bronzeville Classical,610590,8 W ROOT ST,ES,41.81924917,-87.62662118,c(-87.6266211792558,GRAND BOULEVARD
41,1.50163E+14,School,Brown  W Elem School,City of Chicago SD 299,Chicago,ELEMENTARY,33.7,NA,9.7,NA,5.2,NA,2.7,NA,Brown W,609812,54 N HERMITAGE AVE,ES,41.88299678,-87.67068239,c(-87.670682390474,NEAR WEST SIDE
42,1.50163E+14,School,Brown R Elem Community Acad,City of Chicago SD 299,Chicago,ELEMENTARY,24.7,NA,19.6,NA,4.8,NA,24.6,NA,Brown R,610091,12607 S UNION AVE,ES,41.66487335,-87.63895773,c(-87.6389577251878,WEST PULLMAN
43,1.50163E+14,School,Brownell Elem School,City of Chicago SD 299,Chicago,ELEMENTARY,37.1,NA,14.9,NA,10.8,NA,37.5,NA,Brownell,609813,6741 S MICHIGAN AVE,ES,41.77162036,-87.62174597,c(-87.6217459683575,GREATER GRAND CROSSING
44,1.50163E+14,School,Brunson Math & Sci Specialty Elem,City of Chicago SD 299,Chicago,ELEMENTARY,46.9,40.4,8.2,17.2,3,10,13.7,NA,Brunson,609830,932 N CENTRAL AVE,ES,41.89766257,-87.76560566,c(-87.7656056585323,AUSTIN
45,1.50163E+14,School,Budlong Elem School,City of Chicago SD 299,Chicago,ELEMENTARY,29.8,38.1,35.6,20.2,25.3,15,52.3,49,Budlong,609817,2701 W FOSTER AVE,ES,41.97575433,-87.69655603,c(-87.6965560321737,LINCOLN SQUARE
46,1.50163E+14,School,Burbank Elem School,City of Chicago SD 299,Chicago,ELEMENTARY,35.7,34.5,12.4,12.6,7.4,6.8,41,43.3,Burbank,609818,2035 N MOBILE AVE,ES,41.91759814,-87.78269957,c(-87.7826995708567,BELMONT CRAGIN
47,1.50163E+14,School,Burke Elem School,City of Chicago SD 299,Chicago,ELEMENTARY,59.6,NA,2.9,NA,2.3,NA,0,NA,Burke,609819,5356 S KING DR,ES,41.79675956,-87.61614052,c(-87.6161405235868,WASHINGTON PARK
48,1.50163E+14,School,Burley Elem School,City of Chicago SD 299,Chicago,ELEMENTARY,11.1,19,67.8,49.1,65.8,32.1,88.2,78.6,Burley,609820,1630 W BARRY AVE,ES,41.93793747,-87.66985312,c(-87.6698531241136,LAKE VIEW
49,1.50163E+14,School,Burnham Elem Inclusive Academy,City of Chicago SD 299,Chicago,ELEMENTARY,43.1,NA,5.9,10,1,0,14.7,NA,Burnham,609821,9928 S CRANDON AVE,ES,41.71440206,-87.56713059,c(-87.5671305913564,SOUTH DEERING
50,1.50163E+14,School,Burnside Elem Scholastic Academy,City of Chicago SD 299,Chicago,ELEMENTARY,23.7,NA,31.2,NA,9.5,NA,40.6,NA,Burnside,609827,650 E 91ST PL,ES,41.72848064,-87.60743532,c(-87.6074353212801,CHATHAM
51,1.50163E+14,School,Burr Elem School,City of Chicago SD 299,Chicago,ELEMENTARY,12.5,16.6,58.2,45.6,41.2,25.7,69.6,52.3,Burr,609828,1621 W WABANSIA AVE,ES,41.91235791,-87.6686606,c(-87.6686606037651,WEST TOWN
52,1.50163E+14,School,Burroughs Elem School,City of Chicago SD 299,Chicago,ELEMENTARY,31.9,31.6,44,43.2,23.3,23.1,56.6,58.9,Burroughs,609829,3542 S WASHTENAW AVE,ES,41.82886791,-87.69245663,c(-87.6924566292202,BRIGHTON PARK
53,1.50163E+14,School,Byrne Elem School,City of Chicago SD 299,Chicago,ELEMENTARY,35.7,35.7,34.8,34.7,16.8,15.5,58.7,59.1,Byrne,609832,5329 S OAK PARK AVE,ES,41.79503097,-87.79154448,c(-87.7915444826915,GARFIELD RIDGE
54,1.50163E+14,School,Calmeca Acad Elem School,City of Chicago SD 299,Chicago,ELEMENTARY,34.9,35.1,10.9,10.9,3.2,3.1,30.1,30.6,Calmeca,610353,3456 W 38TH ST,ES,41.82437733,-87.71165364,c(-87.7116536405699,BRIGHTON PARK
55,1.50163E+14,School,Cameron Elem School,City of Chicago SD 299,Chicago,ELEMENTARY,23,20.3,9.8,10.7,3,3.2,27.7,27.7,Cameron,609835,1234 N MONTICELLO AVE,ES,41.90379212,-87.71792664,c(-87.7179266351954,HUMBOLDT PARK
56,1.50163E+14,School,Camras Elem School,City of Chicago SD 299,Chicago,ELEMENTARY,32,31.7,14.7,14.7,10.5,10.8,31.1,30.5,Camras,610539,3000 N MANGO AVE,ES,41.93493062,-87.77012726,c(-87.7701272579669,BELMONT CRAGIN
57,1.50163E+14,School,Canty Elem School,City of Chicago SD 299,Chicago,ELEMENTARY,26.7,33.9,47.3,41.9,35.7,26.6,57.8,50,Canty,609836,3740 N PANAMA AVE,ES,41.94800703,-87.8292957,c(-87.8292957010091,DUNNING
58,1.50163E+14,School,Cardenas Elem School,City of Chicago SD 299,Chicago,ELEMENTARY,33.8,33.6,28.8,28.8,18.5,18.2,38.5,38.1,Cardenas,610024,2345 S MILLARD AVE,ES,41.84848777,-87.71601741,c(-87.7160174073361,SOUTH LAWNDALE
59,1.50163E+14,School,Carnegie Elem School,City of Chicago SD 299,Chicago,ELEMENTARY,34.4,NA,33.6,NA,17.8,NA,41,NA,Carnegie,609837,1414 E 61ST PL,ES,41.78336832,-87.59079501,c(-87.5907950092498,WOODLAWN
60,1.50163E+14,School,Carroll Elem School,City of Chicago SD 299,Chicago,ELEMENTARY,32.4,33.3,19.5,15.2,9.6,18.2,38,NA,Carroll,609839,2929 W 83RD ST,ES,41.74251663,-87.69601208,c(-87.6960120751263,ASHBURN
61,1.50163E+14,School,Carson Elem School,City of Chicago SD 299,Chicago,ELEMENTARY,20.3,19.9,33.8,33.8,18,18.1,42.1,43.2,Carson,609842,5516 S MAPLEWOOD AVE,ES,41.79327214,-87.68779954,c(-87.6877995432107,GAGE PARK
62,1.50163E+14,School,Carter Elem School,City of Chicago SD 299,Chicago,ELEMENTARY,30,NA,7.7,NA,5.6,NA,27,NA,Carter,609844,5740 S MICHIGAN AVE,ES,41.78982791,-87.62245275,c(-87.6224527519028,WASHINGTON PARK
63,1.50163E+14,School,Carver Primary School,City of Chicago SD 299,Chicago,ELEMENTARY,43.7,NA,7,NA,2.6,NA,11.4,NA,Carver G,609845,901 E 133RD PL,ES,41.65370212,-87.59951563,c(-87.5995156321937,RIVERDALE
64,1.50163E+14,School,Casals Elem School,City of Chicago SD 299,Chicago,ELEMENTARY,25,24.4,41.1,46.4,18.6,21.9,38,44.1,Casals,610021,3501 W POTOMAC AVE,ES,41.90450276,-87.71423365,c(-87.7142336467136,HUMBOLDT PARK
65,1.50163E+14,School,Cassell Elem School,City of Chicago SD 299,Chicago,ELEMENTARY,23.4,19.5,42.3,20.8,36.4,20.8,60.5,33.3,Cassell,609849,11314 S SPAULDING AVE,ES,41.68734706,-87.70321549,c(-87.7032154882779,MOUNT GREENWOOD
66,1.50163E+14,School,Cather Elem School,City of Chicago SD 299,Chicago,ELEMENTARY,42.8,NA,6.7,NA,3.8,NA,10.1,NA,Cather,610251,2908 W WASHINGTON BLVD,ES,41.88294992,-87.69918701,c(-87.6991870090261,EAST GARFIELD PARK
67,1.50163E+14,School,Chalmers Elem Specialty School,City of Chicago SD 299,Chicago,ELEMENTARY,11.7,NA,8.8,NA,3.4,NA,17.6,NA,Chalmers,609851,2745 W ROOSEVELT RD,ES,41.86643525,-87.69525937,c(-87.6952593685325,NORTH LAWNDALE
68,1.50163E+14,School,Chappell Elem School,City of Chicago SD 299,Chicago,ELEMENTARY,21.5,21.7,38.4,25.3,31.9,16.2,62.5,49,Chappell,609852,2135 W FOSTER AVE,ES,41.9758943,-87.68326359,c(-87.6832635918994,LINCOLN SQUARE
69,1.50163E+14,School,Chase Elem School,City of Chicago SD 299,Chicago,ELEMENTARY,36.2,37.8,23.8,22.4,8.1,7.5,40.9,40,Chase,609853,2021 N POINT ST,ES,41.91799265,-87.69456225,c(-87.6945622514896,LOGAN SQUARE
70,1.50163E+14,School,Chavez Elem Multicultural Acad Ct,City of Chicago SD 299,Chicago,ELEMENTARY,24,23.9,28,28.8,27.2,27.9,43,44.3,Chavez,610148,4747 S MARSHFIELD AVE,ES,41.80714283,-87.66603693,c(-87.666036934244,NEW CITY
71,1.50163E+14,School,Chicago Academy Elem School,City of Chicago SD 299,Chicago,ELEMENTARY,26.2,27.9,25.9,20.5,23.8,18.2,43.6,38.1,Chicago Academy Es,610248,3400 N AUSTIN AVE,ES,41.94305592,-87.7781868,c(-87.7781868027471,DUNNING
72,1.50163E+14,School,Chicago World Language Academy,City of Chicago SD 299,Chicago,ELEMENTARY,12.7,17.5,46.2,43.5,39.6,27.5,57.4,60.7,Chicago World Language Academy,610060,1340 W HARRISON ST,ES,41.87429964,-87.66098467,c(-87.6609846718461,NEAR WEST SIDE
73,1.50163E+14,School,Chopin Elem School,City of Chicago SD 299,Chicago,ELEMENTARY,52,53.8,11.7,13.3,4.4,4.7,21.2,25,Chopin,609854,2450 W RICE ST,ES,41.89671269,-87.68893676,c(-87.6889367624451,WEST TOWN
74,1.50163E+14,School,Christopher Elem School,City of Chicago SD 299,Chicago,ELEMENTARY,54.5,53.5,7.2,7.2,6,5.6,22.6,26.4,Christopher,609855,5042 S ARTESIAN AVE,ES,41.80165862,-87.685607,c(-87.6856070030601,GAGE PARK
75,1.50163E+14,School,Claremont Academy Elem School,City of Chicago SD 299,Chicago,ELEMENTARY,39.7,47.9,13.9,13,9.1,13.5,21.3,22.2,Claremont,610347,2300 W 64TH ST,ES,41.77751051,-87.6810612,c(-87.6810611976981,CHICAGO LAWN
76,1.50163E+14,School,Clark  G R Elem School,City of Chicago SD 299,Chicago,ELEMENTARY,24.3,NA,22.8,27.8,14.9,19.4,36.8,43.8,Clark Es,609795,1045 S MONITOR AVE,ES,41.86781257,-87.77041753,c(-87.7704175273765,AUSTIN
77,1.50163E+14,School,Clay Elem School,City of Chicago SD 299,Chicago,ELEMENTARY,37.7,34.6,16.3,19.4,7.6,9.5,25.2,28.9,Clay,609856,13231 S BURLEY AVE,ES,41.65455815,-87.5446136,c(-87.5446135976815,HEGEWISCH
78,1.50163E+14,School,Cleveland Elem School,City of Chicago SD 299,Chicago,ELEMENTARY,34.4,35.8,22.1,19.7,12.2,9.6,35.4,35.8,Cleveland,609857,3121 W BYRON ST,ES,41.95204212,-87.70644253,c(-87.7064425254556,IRVING PARK
79,1.50163E+14,School,Clinton Elem School,City of Chicago SD 299,Chicago,ELEMENTARY,33.3,35.5,22.4,14.9,18.3,9.3,29.4,27.3,Clinton,609859,6110 N FAIRFIELD AVE,ES,41.99254136,-87.69835995,c(-87.6983599543119,WEST RIDGE
80,1.50163E+14,School,Clissold Elem School,City of Chicago SD 299,Chicago,ELEMENTARY,26.7,28.2,22,20,9.7,8,41.6,NA,Clissold,609861,2350 W 110TH PL,ES,41.69302601,-87.68089679,c(-87.6808967872127,MORGAN PARK
81,1.50163E+14,School,Colemon J Elem Academy,City of Chicago SD 299,Chicago,ELEMENTARY,28.3,NA,22.9,NA,16.9,NA,43.2,NA,Colemon,610199,1441 W 119TH ST,ES,41.67750545,-87.65811084,c(-87.6581108388511,WEST PULLMAN
82,1.50163E+14,School,Coles Elem Language Academy,City of Chicago SD 299,Chicago,ELEMENTARY,47.1,NA,8.6,NA,2.5,NA,14.3,NA,Coles,609862,8441 S YATES BLVD,ES,41.74141281,-87.56596977,c(-87.5659697718122,SOUTH CHICAGO
83,1.50163E+14,School,Columbia Explorers Elem Academy,City of Chicago SD 299,Chicago,ELEMENTARY,19.4,18.8,41,41.4,19.9,20,57.7,57.7,Columbia Explorers,610170,4520 S KEDZIE AVE,ES,41.81106861,-87.70419859,c(-87.7041985911247,BRIGHTON PARK
84,1.50163E+14,School,Columbus Elem School,City of Chicago SD 299,Chicago,ELEMENTARY,20.7,25.4,20.4,17.1,14.1,4.9,36.9,46.2,Columbus,609863,1003 N LEAVITT ST,ES,41.89956578,-87.68193805,c(-87.6819380493147,WEST TOWN
85,1.50163E+14,School,Cook Elem School,City of Chicago SD 299,Chicago,ELEMENTARY,30.4,NA,9.2,0,3.6,0,31.7,NA,Cook,609864,8150 S BISHOP ST,ES,41.74523702,-87.65977459,c(-87.6597745897933,AUBURN GRESHAM
86,1.50163E+14,School,Coonley Elem School,City of Chicago SD 299,Chicago,ELEMENTARY,12.4,24.4,67.1,45.5,65.4,39.8,81.5,57.6,Coonley,609866,4046 N LEAVITT ST,ES,41.9555532,-87.6837653,c(-87.6837653007534,NORTH CENTER
87,1.50163E+14,School,Cooper Elem Dual Language Academy,City of Chicago SD 299,Chicago,ELEMENTARY,26,24.8,13.8,13.8,7.6,7.8,34.7,35.7,Cooper,609867,1624 W 19TH ST,ES,41.85603119,-87.66722708,c(-87.6672270844516,LOWER WEST SIDE
88,1.50163E+14,School,Corkery Elem School,City of Chicago SD 299,Chicago,ELEMENTARY,54.7,48.5,8,8.7,5.5,6.2,15.4,16.9,Corkery,609870,2510 S KILDARE AVE,ES,41.84560242,-87.73119287,c(-87.7311928656751,SOUTH LAWNDALE
89,1.50163E+14,School,Courtenay Elem Language Arts Ctr,City of Chicago SD 299,Chicago,ELEMENTARY,49.8,42.7,11.9,5.4,5.1,5.4,41,42.9,Courtenay,610355,4420 N BEACON ST,ES,41.96230777,-87.66385296,c(-87.663852963103,UPTOWN
90,1.50163E+14,School,Crown Elem Comm Acd Fine Arts Ctr,City of Chicago SD 299,Chicago,ELEMENTARY,24.2,NA,24.4,20,3.8,0,34.4,NA,Crown,609873,2128 S SAINT LOUIS AVE,ES,41.85266349,-87.71247015,c(-87.712470150605,NORTH LAWNDALE
91,1.50163E+14,School,Cuffe Math-Sci Tech Elem Academy,City of Chicago SD 299,Chicago,ELEMENTARY,29.6,NA,19,NA,10.3,NA,28.9,NA,Cuffe,610003,8324 S RACINE AVE,ES,41.74245163,-87.65363345,c(-87.6536334470635,AUBURN GRESHAM
92,1.50163E+14,School,Cullen Elem School,City of Chicago SD 299,Chicago,ELEMENTARY,21.9,NA,19.8,NA,8.1,NA,39,NA,Cullen,610004,10650 S EBERHART AVE,ES,41.70033514,-87.61124446,c(-87.6112444584194,ROSELAND
93,1.50163E+14,School,Curtis Elem School,City of Chicago SD 299,Chicago,ELEMENTARY,54.7,NA,3.3,0,1,0,4.3,NA,Curtis,609900,32 E 115TH ST,ES,41.6854184,-87.62165261,c(-87.6216526075729,ROSELAND
94,1.50163E+14,School,Daisy Bates Academy of Social Justice,City of Chicago SD 299,Chicago,ELEMENTARY,36.8,NA,14.5,NA,2.2,NA,33.3,NA,Daisy Bates,609833,8546 S CREGIER AVE,ES,41.73922636,-87.58072903,c(-87.5807290276637,AVALON PARK
95,1.50163E+14,School,Daley Elem Academy,City of Chicago SD 299,Chicago,ELEMENTARY,29,28.1,2.9,3.2,1.6,1.8,17,17.4,Daley,610239,5024 S WOLCOTT AVE,ES,41.80234287,-87.6722064,c(-87.6722064021581,NEW CITY
96,1.50163E+14,School,Darwin Elem School,City of Chicago SD 299,Chicago,ELEMENTARY,24.2,24.5,22.5,21.2,10,11,30.6,26,Darwin,609875,3116 W BELDEN AVE,ES,41.92332272,-87.70541291,c(-87.7054129138402,LOGAN SQUARE
97,1.50163E+14,School,Davis M Magnet Elem School,City of Chicago SD 299,Chicago,ELEMENTARY,24,NA,10.7,9.1,16.9,36.4,33.3,NA,Davis M,610521,6740 S PAULINA ST,ES,41.77122111,-87.66652988,c(-87.6665298832492,WEST ENGLEWOOD
98,1.50163E+14,School,Davis N Elem School,City of Chicago SD 299,Chicago,ELEMENTARY,34.3,33.5,6.2,5.9,5.2,5.2,29.7,29.6,Davis N,609876,3014 W 39TH PL,ES,41.82185161,-87.70020216,c(-87.7002021602538,BRIGHTON PARK
99,1.50163E+14,School,Dawes Elem School,City of Chicago SD 299,Chicago,ELEMENTARY,35.5,35.4,20.9,20.5,13.2,14.1,40.5,40.5,Dawes,609879,3810 W 81ST PL,ES,41.74507775,-87.71735342,c(-87.7173534236251,ASHBURN
100,1.50163E+14,School,De Diego Elem Community Academy,City of Chicago SD 299,Chicago,ELEMENTARY,58.8,59.7,12.8,15.8,7.4,8.7,24,23.9,De Diego,610313,1313 N CLAREMONT AVE,ES,41.90529385,-87.6857562,c(-87.6857562038406,WEST TOWN
101,1.50163E+14,School,Decatur Classical Elem School,City of Chicago SD 299,Chicago,ELEMENTARY,12.4,NA,91,96.8,87.5,83.9,100,NA,Decatur,609880,7030 N SACRAMENTO AVE,ES,42.00928856,-87.70461859,c(-87.7046185932161,WEST RIDGE
102,1.50163E+14,School,Deneen Elem School,City of Chicago SD 299,Chicago,ELEMENTARY,37.6,NA,12.7,NA,1.5,NA,15.1,NA,Deneen,609883,7240 S WABASH AVE,ES,41.76249026,-87.62334459,c(-87.6233445892565,GREATER GRAND CROSSING
103,1.50163E+14,School,Depriest Elem School,City of Chicago SD 299,Chicago,ELEMENTARY,52.4,NA,7.8,8.3,4.8,8.3,18.2,NA,Depriest,610367,139 S PARKSIDE AVE,ES,41.87797883,-87.76629755,c(-87.7662975545492,AUSTIN
104,1.50163E+14,School,Dett Elem School,City of Chicago SD 299,Chicago,ELEMENTARY,60.8,71.4,0.7,NA,0.7,NA,4.3,NA,Dett,610252,2131 W MONROE ST,ES,41.87986982,-87.68031497,c(-87.6803149665616,NEAR WEST SIDE
105,1.50163E+14,School,Dever Elem School,City of Chicago SD 299,Chicago,ELEMENTARY,32.3,34.9,21.2,16.2,13.5,8.8,36.5,26,Dever,609884,3436 N OSCEOLA AVE,ES,41.94255167,-87.81313153,c(-87.8131315252764,DUNNING
106,1.50163E+14,School,Dewey Elem Academy of Fine Arts,City of Chicago SD 299,Chicago,ELEMENTARY,36.9,44.4,15.2,20,8.7,20,20.8,NA,Dewey,609885,5415 S UNION AVE,ES,41.79564568,-87.64265158,c(-87.6426515784204,NEW CITY
107,1.50163E+14,School,Dirksen Elem School,City of Chicago SD 299,Chicago,ELEMENTARY,34.5,51,28.4,22.2,35.3,18.8,50.2,71.4,Dirksen,609874,8601 W FOSTER AVE,ES,41.97371478,-87.84104144,c(-87.8410414426434,OHARE
108,1.50163E+14,School,Disney Elem Magnet School,City of Chicago SD 299,Chicago,ELEMENTARY,23.2,26.9,43,42.9,31,26.8,70.4,65.5,Disney,610363,4140 N MARINE DR,ES,41.95681613,-87.64608274,c(-87.6460827440355,UPTOWN
109,1.50163E+14,School,Disney II Elem School,City of Chicago SD 299,Chicago,ELEMENTARY,16.8,20,46.2,38.9,36.5,23.3,76.4,65,Disney Ii Es,610515,3815 N KEDVALE AVE,ES,41.95046051,-87.73067838,c(-87.7306783761365,IRVING PARK
110,1.50163E+14,School,Dixon Elem School,City of Chicago SD 299,Chicago,ELEMENTARY,24,NA,40.1,NA,13.9,NA,48.1,NA,Dixon,609887,8306 S SAINT LAWRENCE AVE,ES,41.74366924,-87.60997887,c(-87.6099788745366,CHATHAM
111,1.50163E+14,School,Dore Elem School,City of Chicago SD 299,Chicago,ELEMENTARY,32.3,33.9,26.9,26.3,19.5,20.3,44.2,44.6,Dore,609893,7134 W 65TH ST,ES,41.77389882,-87.79935927,c(-87.7993592703179,CLEARING
112,1.50163E+14,School,Drake Elem School,City of Chicago SD 299,Chicago,ELEMENTARY,47.3,NA,12.2,NA,3.5,NA,17.4,NA,Drake,609894,2710 S DEARBORN ST,ES,41.84404331,-87.62855345,c(-87.6285534465788,DOUGLAS
113,1.50163E+14,School,Drummond Elem School,City of Chicago SD 299,Chicago,ELEMENTARY,18.9,26.2,41.5,34.3,29.5,8.6,56.8,NA,Drummond,609896,1845 W CORTLAND ST,ES,41.9159138,-87.6744946,c(-87.6744945989265,LOGAN SQUARE
114,1.50163E+14,School,Dubois Elem School,City of Chicago SD 299,Chicago,ELEMENTARY,35,NA,6.8,NA,1.7,NA,20.6,NA,Dubois,610364,330 E 133RD ST,ES,41.65373298,-87.61432001,c(-87.6143200102104,RIVERDALE
115,1.50163E+14,School,Dulles Elem School,City of Chicago SD 299,Chicago,ELEMENTARY,21.2,NA,4.6,0,1.1,0,9.3,NA,Dulles,610263,6311 S CALUMET AVE,ES,41.77990049,-87.61721418,c(-87.6172141790521,GREATER GRAND CROSSING
116,1.50163E+14,School,Dunne Technology Acad Elem Sch,City of Chicago SD 299,Chicago,ELEMENTARY,19.1,NA,31.5,NA,12.8,NA,42.9,NA,Dunne,610188,10845 S UNION AVE,ES,41.69649616,-87.6399736,c(-87.6399736042198,ROSELAND
117,1.50163E+14,School,Durkin Park Elem School,City of Chicago SD 299,Chicago,ELEMENTARY,32.6,31.7,24.3,25.3,15.2,17.2,39.3,42.4,Durkin Park,610352,8445 S KOLIN AVE,ES,41.73884394,-87.72995529,c(-87.7299552923997,ASHBURN
118,1.50163E+14,School,Dvorak Technology Acad Elem Sch,City of Chicago SD 299,Chicago,ELEMENTARY,44.8,78.3,8,17.6,3.4,0,19,NA,Dvorak,610254,3615 W 16TH ST,ES,41.85888345,-87.71574357,c(-87.7157435717871,NORTH LAWNDALE
119,1.50163E+14,School,Earhart Elem Opt for Knowl School,City of Chicago SD 299,Chicago,ELEMENTARY,19.4,NA,50.7,NA,23.7,NA,61.9,NA,Earhart,610316,1710 E 93RD ST,ES,41.72610746,-87.58218174,c(-87.5821817378437,CALUMET HEIGHTS
120,1.50163E+14,School,Earle Elem School,City of Chicago SD 299,Chicago,ELEMENTARY,29.1,46.7,8.3,8.7,2.8,0,23.8,NA,Earle,609897,2040 W 62ND ST,ES,41.78122517,-87.67554666,c(-87.6755466601167,WEST ENGLEWOOD
121,1.50163E+14,School,Eberhart Elem School,City of Chicago SD 299,Chicago,ELEMENTARY,42.5,41.4,10.5,11,6.4,6.7,34.5,35.4,Eberhart,609898,3400 W 65TH PL,ES,41.77442045,-87.70795263,c(-87.707952633474,CHICAGO LAWN
122,1.50163E+14,School,Ebinger Elem School,City of Chicago SD 299,Chicago,ELEMENTARY,18.7,30.4,60,52.9,43.6,29.4,79.2,71.4,Ebinger,609899,7350 W PRATT AVE,ES,42.00440792,-87.81116978,c(-87.8111697848494,EDISON PARK
123,1.50163E+14,School,Edgebrook Elem School,City of Chicago SD 299,Chicago,ELEMENTARY,11.1,15.9,61,42.4,44.3,26.2,57.1,48,Edgebrook,609901,6525 N HIAWATHA AVE,ES,41.99943683,-87.76184047,c(-87.7618404744276,FOREST GLEN
124,1.50163E+14,School,Edison Elem Regional Gifted Cntr,City of Chicago SD 299,Chicago,ELEMENTARY,10.6,NA,89.3,81.8,89,76.2,89.8,NA,Edison,609794,4929 N SAWYER AVE,ES,41.9715061,-87.70930367,c(-87.7093036657652,ALBANY PARK
125,1.50163E+14,School,Edison Park Elem School,City of Chicago SD 299,Chicago,ELEMENTARY,19.9,26,40.1,40,27,21.4,50.7,72.2,Edison Park,610523,6220 N OLCOTT AVE,ES,41.99423795,-87.81377123,c(-87.8137712340288,NORWOOD PARK
126,1.50163E+14,School,Edwards Elem School,City of Chicago SD 299,Chicago,ELEMENTARY,36.9,36.7,11.6,11.1,6.7,6.3,40.7,40.8,Edwards,609903,4815 S KARLOV AVE,ES,41.80554154,-87.72585618,c(-87.7258561778945,ARCHER HEIGHTS
127,1.50163E+14,School,Ellington Elem School,City of Chicago SD 299,Chicago,ELEMENTARY,51.9,50,11.1,8.3,2.7,0,18.3,NA,Ellington,609904,243 N PARKSIDE AVE,ES,41.88552958,-87.76658938,c(-87.7665893777082,AUSTIN
128,1.50163E+14,School,Ericson Elem Scholastic Academy,City of Chicago SD 299,Chicago,ELEMENTARY,34.4,NA,17.4,NA,8,NA,26.4,NA,Ericson,609907,3600 W 5TH AVE,ES,41.87574412,-87.71580443,c(-87.7158044314954,EAST GARFIELD PARK
129,1.50163E+14,School,Esmond Elem School,City of Chicago SD 299,Chicago,ELEMENTARY,45.4,NA,14.4,NA,4.6,NA,30.2,NA,Esmond,609908,1865 W MONTVALE AVE,ES,41.68941961,-87.66915867,c(-87.6691586699832,MORGAN PARK
130,1.50163E+14,School,Everett Elem School,City of Chicago SD 299,Chicago,ELEMENTARY,NA,NA,54.5,56.4,34.1,38.5,52.9,56.3,Everett,609909,3419 S BELL AVE,ES,41.83155516,-87.6813103,c(-87.6813103037163,MCKINLEY PARK
131,1.50163E+14,School,Evergreen Academy Elem School,City of Chicago SD 299,Chicago,ELEMENTARY,26.9,27,26.3,25.4,12.1,10.7,44.1,43.3,Evergreen,610319,3537 S PAULINA ST,ES,41.82935562,-87.66781651,c(-87.6678165117463,MCKINLEY PARK
132,1.50163E+14,School,Evers Elem School,City of Chicago SD 299,Chicago,ELEMENTARY,30.6,NA,17.5,NA,7.1,NA,34.1,NA,Evers,610362,9811 S LOWE AVE,ES,41.71566536,-87.63930547,c(-87.6393054689474,WASHINGTON HEIGHTS
133,1.50163E+14,School,Fairfield Elem Academy,City of Chicago SD 299,Chicago,ELEMENTARY,38.4,33.7,7.4,8.1,5.2,5,18,20,Fairfield,610057,6201 S FAIRFIELD AVE,ES,41.7809039,-87.69211506,c(-87.6921150637715,CHICAGO LAWN
134,1.50163E+14,School,Falconer Elem School,City of Chicago SD 299,Chicago,ELEMENTARY,37.3,37.3,20.6,20.1,16,15.5,34.4,34.4,Falconer,609910,3020 N LAMON AVE,ES,41.93578457,-87.74933063,c(-87.7493306251371,BELMONT CRAGIN
135,1.50163E+14,School,Faraday Elem School,City of Chicago SD 299,Chicago,ELEMENTARY,54.6,NA,12.7,NA,9.3,NA,23.1,NA,Faraday,610055,3250 W MONROE ST,ES,41.87971359,-87.70809202,c(-87.7080920204393,EAST GARFIELD PARK
136,1.50163E+14,School,Farnsworth Elem School,City of Chicago SD 299,Chicago,ELEMENTARY,27.2,34.5,37.3,19.7,32.2,13.6,51.9,38.8,Farnsworth,609912,5414 N LINDER AVE,ES,41.97979006,-87.76607166,c(-87.7660716581834,JEFFERSON PARK
137,1.50163E+14,School,Fernwood Elem School,City of Chicago SD 299,Chicago,ELEMENTARY,26.8,NA,24.4,NA,10.7,NA,18.8,NA,Fernwood,609917,10041 S UNION AVE,ES,41.71118362,-87.64041365,c(-87.6404136455724,WASHINGTON HEIGHTS
138,1.50163E+14,School,Field Elem School,City of Chicago SD 299,Chicago,ELEMENTARY,32,24.7,14.5,10.7,6.3,5.3,25.8,33.3,Field,609918,7019 N ASHLAND AVE,ES,42.00966386,-87.6699854,c(-87.6699854006685,ROGERS PARK
139,1.50163E+14,School,Finkl Elem School,City of Chicago SD 299,Chicago,ELEMENTARY,35.2,32.1,15,16.5,12.4,14,30.6,33.3,Finkl,609967,2332 S WESTERN AVE,ES,41.84921491,-87.68566784,c(-87.6856678426574,LOWER WEST SIDE
140,1.50163E+14,School,Fiske Elem School,City of Chicago SD 299,Chicago,ELEMENTARY,47.5,NA,8,NA,3.1,NA,27.7,NA,Fiske,609919,6020 S LANGLEY AVE,ES,41.78518282,-87.6086329,c(-87.6086328964644,WOODLAWN
141,1.50163E+14,School,Fort Dearborn Elem School,City of Chicago SD 299,Chicago,ELEMENTARY,42.4,NA,19.6,NA,6,NA,25.5,NA,Fort Dearborn,609924,9025 S THROOP ST,ES,41.72967267,-87.65548116,c(-87.6554811609004,WASHINGTON HEIGHTS
142,1.50163E+14,School,Foster Park Elem School,City of Chicago SD 299,Chicago,ELEMENTARY,27.5,NA,18.9,NA,12.8,NA,28.2,NA,Foster Park,609927,8530 S WOOD ST,ES,41.73842548,-87.66809931,c(-87.6680993123352,AUBURN GRESHAM
143,1.50163E+14,School,Franklin Elem Fine Arts Center,City of Chicago SD 299,Chicago,ELEMENTARY,17.2,22,49.4,54.8,33.6,38.1,56.7,66.7,Franklin,609926,225 W EVERGREEN AVE,ES,41.90659999,-87.63551281,c(-87.6355128103069,NEAR NORTH SIDE
144,1.50163E+14,School,Frazier Perspectives Magnet ES,City of Chicago SD 299,Chicago,ELEMENTARY,31.4,NA,23.9,NA,5.4,NA,57.1,NA,Frazier Prospective,610503,4027 W GRENSHAW ST,ES,41.86697963,-87.72724438,c(-87.72724437841,NORTH LAWNDALE
145,1.50163E+14,School,Fuller Elem School,City of Chicago SD 299,Chicago,ELEMENTARY,49.4,NA,18.5,NA,5,NA,21.7,NA,Fuller,609928,4214 S ST LAWRENCE AVE,ES,41.8180034,-87.61178404,c(-87.6117840426449,GRAND BOULEVARD
146,1.50163E+14,School,Fulton Elem School,City of Chicago SD 299,Chicago,ELEMENTARY,40.2,39.4,15.1,16.9,6.3,8.1,34.5,35.7,Fulton,609929,5300 S HERMITAGE AVE,ES,41.79758027,-87.66843588,c(-87.6684358817944,NEW CITY
147,1.50163E+14,School,Funston Elem School,City of Chicago SD 299,Chicago,ELEMENTARY,38.6,35.8,9.8,9.8,9.1,9.4,28.3,29.3,Funston,609930,2010 N CENTRAL PARK AVE,ES,41.91761651,-87.71689166,c(-87.7168916647972,LOGAN SQUARE
148,1.50163E+14,School,Gale Elem Community Academy,City of Chicago SD 299,Chicago,ELEMENTARY,53.2,49.2,9,10.7,3.7,7.1,17.4,10,Gale,609933,1631 W JONQUIL TER,ES,42.02109056,-87.67193898,c(-87.6719389762013,ROGERS PARK
149,1.50163E+14,School,Galileo Elem Math & Sci Schol Acd,City of Chicago SD 299,Chicago,ELEMENTARY,18.1,21.2,41.3,40.9,29.8,27.1,58.2,57.6,Galileo,610009,820 S CARPENTER ST,ES,41.87125482,-87.65336555,c(-87.6533655530811,NEAR WEST SIDE
150,1.50163E+14,School,Gallistel Elem Language Academy,City of Chicago SD 299,Chicago,ELEMENTARY,35.3,32.2,14.6,15.4,8.8,9,38.4,38.4,Gallistel,609935,10347 S EWING AVE,ES,41.706801,-87.53517531,c(-87.5351753058445,EAST SIDE
151,1.50163E+14,School,Garcia Lorca Elem School,City of Chicago SD 299,Chicago,ELEMENTARY,32.2,31.7,26.7,26.8,17.4,18,37.1,37.2,Lorca,610541,3231 N SPRINGFIELD AVE,ES,41.94002591,-87.72478312,c(-87.7247831235504,AVONDALE
152,1.50163E+14,School,Garvey  M Elem School,City of Chicago SD 299,Chicago,ELEMENTARY,35,NA,12.5,NA,3.7,NA,23.1,NA,Garvey,610128,10309 S MORGAN ST,ES,41.70660286,-87.64757717,c(-87.6475771651965,WASHINGTON HEIGHTS
153,1.50163E+14,School,Garvy  J Elem School,City of Chicago SD 299,Chicago,ELEMENTARY,27.1,34.3,38.9,36.8,28.7,22.2,65.4,64.4,Garvy,609937,5225 N OAK PARK AVE,ES,41.97635166,-87.79623511,c(-87.7962351140656,NORWOOD PARK
154,1.50163E+14,School,Gary Elem School,City of Chicago SD 299,Chicago,ELEMENTARY,29.2,29,21.4,21.7,10.4,10.5,29,29.2,Gary,609938,3740 W 31ST ST,ES,41.83706515,-87.71869664,c(-87.7186966358187,SOUTH LAWNDALE
155,1.50163E+14,School,Gillespie Elem School,City of Chicago SD 299,Chicago,ELEMENTARY,49.4,NA,8.9,NA,5,NA,27.4,NA,Gillespie,609939,9301 S STATE ST,ES,41.72533228,-87.62371944,c(-87.6237194374926,ROSELAND
156,1.50163E+14,School,Goethe Elem School,City of Chicago SD 299,Chicago,ELEMENTARY,28.8,31.7,28.7,21.9,19.3,14.3,38.9,29.9,Goethe,609942,2236 N ROCKWELL ST,ES,41.92283101,-87.6928997,c(-87.6928996958228,LOGAN SQUARE
157,1.50163E+14,School,Goudy Technology Academy,City of Chicago SD 299,Chicago,ELEMENTARY,26.3,33.8,28.4,21,24.5,20,45.8,35.1,Goudy,609945,5120 N WINTHROP AVE,ES,41.97581653,-87.65791249,c(-87.6579124923935,UPTOWN
158,1.50163E+14,School,Graham  A Elem School,City of Chicago SD 299,Chicago,ELEMENTARY,44.8,38.6,7.2,10.7,2.7,4.5,15.9,19.4,Graham Es,609947,4436 S UNION AVE,ES,41.81330373,-87.64334424,c(-87.6433442356135,NEW CITY
159,1.50163E+14,School,Gray Elem School,City of Chicago SD 299,Chicago,ELEMENTARY,33.9,32.9,22.9,22.4,16.4,15.8,42.4,41.9,Gray,609949,3730 N LARAMIE AVE,ES,41.94876358,-87.7571156,c(-87.7571155985857,PORTAGE PARK
160,1.50163E+14,School,Greeley Elem School,City of Chicago SD 299,Chicago,ELEMENTARY,27.7,23.8,37.7,41.7,23.6,28.2,65.8,67.9,Greeley,609850,832 W SHERIDAN RD,ES,41.95280951,-87.65097987,c(-87.6509798693604,LAKE VIEW
161,1.50163E+14,School,Green  W Elem School,City of Chicago SD 299,Chicago,ELEMENTARY,29.9,NA,32,NA,13.3,NA,40,NA,Green,610032,1150 W 96TH ST,ES,41.71929195,-87.65250014,c(-87.6525001391931,WASHINGTON HEIGHTS
162,1.50163E+14,School,Greene N Elem School,City of Chicago SD 299,Chicago,ELEMENTARY,30.7,31.7,23.5,23.3,11,8.3,38.8,36.4,Greene,609952,3525 S HONORE ST,ES,41.82966928,-87.67149237,c(-87.6714923696168,MCKINLEY PARK
163,1.50163E+14,School,Gregory Math & Sci Elem Academy,City of Chicago SD 299,Chicago,ELEMENTARY,26,NA,21.6,NA,6.5,NA,13.8,NA,Gregory,609954,3715 W POLK ST,ES,41.87074216,-87.71866613,c(-87.7186661290114,EAST GARFIELD PARK
164,1.50163E+14,School,Gresham Elem School,City of Chicago SD 299,Chicago,ELEMENTARY,21.2,NA,14.9,NA,1.4,NA,8.8,NA,Gresham,609955,8524 S GREEN ST,ES,41.73892016,-87.64502524,c(-87.645025237443,AUBURN GRESHAM
165,1.50163E+14,School,Grimes Elem School,City of Chicago SD 299,Chicago,ELEMENTARY,33.5,33.2,31.4,30.6,23.5,21.6,35.5,34.9,Grimes,609956,5450 W 64TH PL,ES,41.77546426,-87.75880329,c(-87.7588032937145,CLEARING
166,1.50163E+14,School,Grissom Elem School,City of Chicago SD 299,Chicago,ELEMENTARY,29.9,30,42.9,42.5,18.4,19.7,65.1,63,Grissom,609944,12810 S ESCANABA AVE,ES,41.662481,-87.55330671,c(-87.5533067102827,HEGEWISCH
167,1.50163E+14,School,Gunsaulus Elem Scholastic Academy,City of Chicago SD 299,Chicago,ELEMENTARY,12.7,12.3,16.9,16.7,17.4,16.7,49.3,48.9,Gunsaulus,609958,4420 S SACRAMENTO AVE,ES,41.81300737,-87.69936419,c(-87.6993641851919,BRIGHTON PARK
168,1.50163E+14,School,Haines Elem School,City of Chicago SD 299,Chicago,ELEMENTARY,7.1,NA,53.3,18.2,56.2,45.5,72.3,NA,Haines,609959,247 W 23RD PL,ES,41.84995832,-87.63380633,c(-87.6338063309478,ARMOUR SQUARE
169,1.50163E+14,School,Hale Elem School,City of Chicago SD 299,Chicago,ELEMENTARY,32.7,32.3,34.3,32.3,18.8,18.3,56.4,56.2,Hale,609960,6140 S MELVINA AVE,ES,41.78019173,-87.77657871,c(-87.776578709076,CLEARING
170,1.50163E+14,School,Haley Elem Academy,City of Chicago SD 299,Chicago,ELEMENTARY,33.1,NA,16.5,38.5,3.1,15.4,21.2,NA,Haley,609808,11411 S EGGLESTON AVE,ES,41.68665997,-87.63363214,c(-87.6336321361866,ROSELAND
171,1.50163E+14,School,Hamilton Elem School,City of Chicago SD 299,Chicago,ELEMENTARY,12.6,18.5,64.3,44.8,59.9,40,76.2,27.3,Hamilton,609963,1650 W CORNELIA AVE,ES,41.94521966,-87.67086537,c(-87.6708653730253,LAKE VIEW
172,1.50163E+14,School,Hamline Elem School,City of Chicago SD 299,Chicago,ELEMENTARY,54.2,53.3,5.9,5.8,4.6,3.7,10.3,11.7,Hamline,609964,4747 S BISHOP ST,ES,41.80724156,-87.66117466,c(-87.661174659831,NEW CITY
173,1.50163E+14,School,Hammond Elem School,City of Chicago SD 299,Chicago,ELEMENTARY,41.8,40.8,13,14.8,8.9,9.4,41.3,41,Hammond,609966,2819 W 21ST PL,ES,41.85271913,-87.6962433,c(-87.6962433009075,SOUTH LAWNDALE
174,1.50163E+14,School,Hampton Elem Fine & Perf Arts Sch,City of Chicago SD 299,Chicago,ELEMENTARY,42.7,39.7,10.2,10.9,5,5.2,19.1,24.1,Hampton,609807,3434 W 77TH ST,ES,41.75345719,-87.70873128,c(-87.7087312844704,ASHBURN
175,1.50163E+14,School,Hanson Park Elem School,City of Chicago SD 299,Chicago,ELEMENTARY,35.5,35.1,16.8,16.9,17,17,38.5,38.2,Hanson Park,610068,5411 W FULLERTON AVE,ES,41.92395526,-87.76151477,c(-87.7615147706062,BELMONT CRAGIN
176,1.50163E+14,School,Harriet Tubman Elem School,City of Chicago SD 299,Chicago,ELEMENTARY,22.6,23.8,42.7,44.8,39.4,32.8,66.7,56.5,Tubman,609773,2851 N SEMINARY AVE,ES,41.9341263,-87.65622867,c(-87.6562286674387,LAKE VIEW
177,1.50163E+14,School,Harvard Elem School,City of Chicago SD 299,Chicago,ELEMENTARY,41.3,NA,8.7,NA,7.6,NA,20.8,NA,Harvard,609971,7525 S HARVARD,ES,41.75734054,-87.63273687,c(-87.6327368742143,GREATER GRAND CROSSING
178,1.50163E+14,School,Haugan Elem School,City of Chicago SD 299,Chicago,ELEMENTARY,27.5,27.4,15.8,13.6,9.1,7.3,22.5,22.4,Haugan,609972,4540 N HAMLIN AVE,ES,41.96402871,-87.72312803,c(-87.7231280349719,ALBANY PARK
179,1.50163E+14,School,Hawthorne Elem Scholastic Academy,City of Chicago SD 299,Chicago,ELEMENTARY,11.3,13.2,88.3,81.4,80.5,65.1,87,80,Hawthorne,609974,3319 N CLIFTON AVE,ES,41.94227549,-87.65770888,c(-87.6577088771243,LAKE VIEW
180,1.50163E+14,School,Hay Elem Community Academy,City of Chicago SD 299,Chicago,ELEMENTARY,36.9,22.2,11.6,11.4,4.6,5.7,31.7,23.1,Hay,609975,1018 N LARAMIE AVE,ES,41.89917136,-87.75581325,c(-87.7558132527565,AUSTIN
181,1.50163E+14,School,Hayt Elem School,City of Chicago SD 299,Chicago,ELEMENTARY,31.6,29.3,28.1,27.6,15.2,14,40.8,41.8,Hayt,609976,1518 W GRANVILLE AVE,ES,41.99454089,-87.66850377,c(-87.6685037746595,EDGEWATER
182,1.50163E+14,School,Healy Elem School,City of Chicago SD 299,Chicago,ELEMENTARY,10.5,39.4,56.3,38.2,58.9,26.5,78.2,63,Healy,609979,3010 S PARNELL AVE,ES,41.83959486,-87.64034075,c(-87.6403407498437,BRIDGEPORT
183,1.50163E+14,School,Hearst Elem School,City of Chicago SD 299,Chicago,ELEMENTARY,37.6,36,7.7,9.4,6.7,10.3,24.2,27.9,Hearst,609981,4640 S LAMON AVE,ES,41.808175,-87.74572606,c(-87.7457260568626,GARFIELD RIDGE
184,1.50163E+14,School,Hedges Elem School,City of Chicago SD 299,Chicago,ELEMENTARY,31.4,30.8,7.6,7.5,3.4,3.6,20.4,20.2,Hedges,609983,4747 S WINCHESTER AVE,ES,41.80711213,-87.67332726,c(-87.6733272589717,NEW CITY
185,1.50163E+14,School,Hefferan Elem School,City of Chicago SD 299,Chicago,ELEMENTARY,51.6,NA,16.9,NA,2.1,NA,26.5,NA,Hefferan,609985,4409 W WILCOX ST,ES,41.87866465,-87.73580189,c(-87.7358018934449,WEST GARFIELD PARK
186,1.50163E+14,School,Henderson Elem School,City of Chicago SD 299,Chicago,ELEMENTARY,41.6,53.8,8.7,10,0,0,11.4,20,Henderson,609986,5650 S WOLCOTT AVE,ES,41.79059129,-87.67188731,c(-87.6718873071972,WEST ENGLEWOOD
187,1.50163E+14,School,Hendricks Elem Community Academy,City of Chicago SD 299,Chicago,ELEMENTARY,50.6,NA,24.2,NA,10,NA,33.3,NA,Hendricks,609987,4316 S PRINCETON AVE,ES,41.81578775,-87.63366448,c(-87.6336644772704,FULLER PARK
188,1.50163E+14,School,Henry Elem School,City of Chicago SD 299,Chicago,ELEMENTARY,29.9,28.3,15.7,14.3,12,11.8,36.7,35.1,Henry,609988,4250 N SAINT LOUIS AVE,ES,41.9589888,-87.71563237,c(-87.7156323716922,IRVING PARK
189,1.50163E+14,School,Hernandez Middle School,City of Chicago SD 299,Chicago,ELEMENTARY,27,26.1,10.7,10.4,8.7,8.6,34.8,34.3,Hernandez,610532,3510 W 55TH ST,ES,41.79347933,-87.71136992,c(-87.7113699213255,GAGE PARK
190,1.50163E+14,School,Herzl Elem School,City of Chicago SD 299,Chicago,ELEMENTARY,50.9,50,4.3,10,3.9,0,7.2,NA,Herzl,609991,3711 W DOUGLAS BLVD,ES,41.8620813,-87.71899385,c(-87.718993854366,NORTH LAWNDALE
191,1.50163E+14,School,Hibbard Elem School,City of Chicago SD 299,Chicago,ELEMENTARY,21.4,19.8,15.5,12.7,9.2,6.5,38.5,35.8,Hibbard,609994,3244 W AINSLIE ST,ES,41.97033524,-87.71036161,c(-87.7103616137838,ALBANY PARK
192,1.50163E+14,School,Higgins Elem Community Academy,City of Chicago SD 299,Chicago,ELEMENTARY,43,NA,16.3,20,6.8,20,32.6,NA,Higgins,610295,11710 S MORGAN ST,ES,41.68103137,-87.64699404,c(-87.6469940379374,WEST PULLMAN
193,1.50163E+14,School,Hitch Elem School,City of Chicago SD 299,Chicago,ELEMENTARY,24.8,30.4,37.4,30.7,20.5,7.9,58.6,52,Hitch,609995,5625 N MCVICKER AVE,ES,41.9836717,-87.77912305,c(-87.7791230521358,NORWOOD PARK
194,1.50163E+14,School,Holden Elem School,City of Chicago SD 299,Chicago,ELEMENTARY,29,34.8,30.7,24.8,31.1,25.7,47,39.6,Holden,609996,1104 W 31ST ST,ES,41.83802739,-87.65379167,c(-87.6537916683059,BRIDGEPORT
195,1.50163E+14,School,Holmes Elem School,City of Chicago SD 299,Chicago,ELEMENTARY,54,55.6,6.2,8.3,0,0,18.2,NA,Holmes,609997,955 W GARFIELD BLVD,ES,41.79378765,-87.64979536,c(-87.6497953554737,ENGLEWOOD
196,1.50163E+14,School,Hope Learning Academy,City of Chicago SD 299,Chicago,ELEMENTARY,55.1,NA,7,NA,11.4,NA,17.9,NA,Hope,NA,NA,NA,NA,NA,c(NA,NA
197,1.50163E+14,School,Howe Elem School,City of Chicago SD 299,Chicago,ELEMENTARY,41.7,43.1,6.7,3.6,5.4,14.3,10,10,Howe,610000,720 N LOREL AVE,ES,41.89361221,-87.75939839,c(-87.7593983851351,AUSTIN
198,1.50163E+14,School,Hoyne Elem School,City of Chicago SD 299,Chicago,ELEMENTARY,32.2,NA,20,NA,11.6,NA,31.4,NA,Hoyne,610002,8905 S CRANDON AVE,ES,41.73333775,-87.5682281,c(-87.5682281016698,CALUMET HEIGHTS
199,1.50163E+14,School,Hughes  C Elem School,City of Chicago SD 299,Chicago,ELEMENTARY,52.1,43.5,1.8,0,0.9,0,4.5,NA,Hughes C,610005,4247 W 15TH ST,ES,41.86051774,-87.73177739,c(-87.7317773871337,NORTH LAWNDALE
200,1.50163E+14,School,Hughes L Elem School,City of Chicago SD 299,Chicago,ELEMENTARY,48.9,63.2,6.9,9.1,2.7,0,13.7,NA,Hughes L,610368,240 W 104TH ST,ES,41.70534232,-87.62986866,c(-87.6298686596394,ROSELAND
201,1.50163E+14,School,Hurley Elem School,City of Chicago SD 299,Chicago,ELEMENTARY,32,31.9,33.6,33.5,13.3,12.7,55.2,55,Hurley,610006,3849 W 69TH PL,ES,41.76678528,-87.71954083,c(-87.719540832625,WEST LAWN
202,1.50163E+14,School,Inter-American Elem Magnet School,City of Chicago SD 299,Chicago,ELEMENTARY,21,22.5,32.2,31.4,19.9,18.9,55.2,53.9,Inter-American,610078,851 W WAVELAND AVE,ES,41.9490033,-87.65157334,c(-87.6515733421414,LAKE VIEW
203,1.50163E+14,School,Irving Elem School,City of Chicago SD 299,Chicago,ELEMENTARY,54.5,29.4,12.4,21.1,4.5,15.8,24.6,NA,Irving,610121,749 S OAKLEY BLVD,ES,41.87159549,-87.68361565,c(-87.6836156511508,NEAR WEST SIDE
204,1.50163E+14,School,Jackson M Elem School,City of Chicago SD 299,Chicago,ELEMENTARY,42.2,NA,11,NA,6.5,NA,16.7,NA,Jackson M,610369,917 W 88TH ST,ES,41.73412547,-87.64676673,c(-87.6467667343908,AUBURN GRESHAM
205,1.50163E+14,School,Jahn Elem School,City of Chicago SD 299,Chicago,ELEMENTARY,35.8,24.8,35,34.7,10.7,8.1,47.5,52.2,Jahn,610010,3149 N WOLCOTT AVE,ES,41.9392475,-87.67580972,c(-87.6758097187004,NORTH CENTER
206,1.50163E+14,School,James R Doolittle Academy,City of Chicago SD 299,Chicago,ELEMENTARY,38.1,NA,2.9,NA,0,NA,14.6,NA,Doolittle,609891,535 E 35TH ST,ES,41.83112063,-87.61227454,c(-87.6122745429816,DOUGLAS
207,1.50163E+14,School,Jamieson Elem School,City of Chicago SD 299,Chicago,ELEMENTARY,23,31.9,41.2,30.2,32.8,17.3,60.2,45.8,Jamieson,610011,5650 N MOZART ST,ES,41.98464078,-87.70052942,c(-87.7005294198377,WEST RIDGE
208,1.50163E+14,School,Jensen Elem Scholastic Academy,City of Chicago SD 299,Chicago,ELEMENTARY,24.9,NA,14.4,NA,4.1,NA,44.4,NA,Jensen,610271,3030 W HARRISON ST,ES,41.87381495,-87.70224105,c(-87.7022410525605,EAST GARFIELD PARK
209,1.50163E+14,School,Johnson Elem School,City of Chicago SD 299,Chicago,ELEMENTARY,37.7,NA,2.6,NA,2.6,NA,3.9,NA,Johnson,610274,1420 S ALBANY AVE,ES,41.86183619,-87.70313876,c(-87.7031387627174,NORTH LAWNDALE
210,1.50163E+14,School,Joplin Elem School,City of Chicago SD 299,Chicago,ELEMENTARY,44.5,34.5,20.8,NA,8.5,NA,32.2,NA,Joplin,609805,7931 S HONORE ST,ES,41.74933916,-87.66936565,c(-87.669365649609,AUBURN GRESHAM
211,1.50163E+14,School,Jordan Elem Community School,City of Chicago SD 299,Chicago,ELEMENTARY,38,41.2,8,6.3,6.9,6.9,18.2,24.5,Jordan,609865,7414 N WOLCOTT AVE,ES,42.01708759,-87.67776252,c(-87.6777625168446,ROGERS PARK
212,1.50163E+14,School,Jungman Elem School,City of Chicago SD 299,Chicago,ELEMENTARY,39.1,38.5,41.4,38.9,18.5,17.6,43.8,45.7,Jungman,610015,1746 S MILLER ST,ES,41.85806478,-87.65230159,c(-87.652301594476,LOWER WEST SIDE
213,1.50163E+14,School,Kanoon Elem Magnet School,City of Chicago SD 299,Chicago,ELEMENTARY,43.9,43.7,10.8,10.9,5.4,5.4,30,30,Kanoon,609920,2233 S KEDZIE AVE,ES,41.85077148,-87.70511208,c(-87.7051120770972,SOUTH LAWNDALE
214,1.50163E+14,School,Keller Elem Gifted Magnet School,City of Chicago SD 299,Chicago,ELEMENTARY,8.9,NA,95.7,100,90.7,90.9,98.2,NA,Keller,610084,3020 W 108TH ST,ES,41.69717033,-87.69727834,c(-87.6972783369984,MOUNT GREENWOOD
215,1.50163E+14,School,Kellman Corporate Community Elem,City of Chicago SD 299,Chicago,ELEMENTARY,32.3,NA,4,NA,1.6,NA,6.8,NA,Kellman,609925,3030 W ARTHINGTON ST,ES,41.87016772,-87.7021629,c(-87.7021629043717,EAST GARFIELD PARK
216,1.50163E+14,School,Kellogg Elem School,City of Chicago SD 299,Chicago,ELEMENTARY,9.3,NA,55.2,NA,34.2,NA,55.9,NA,Kellogg,610016,9241 S LEAVITT ST,ES,41.72526344,-87.67723251,c(-87.6772325060255,BEVERLY
217,1.50163E+14,School,Kershaw Elem School,City of Chicago SD 299,Chicago,ELEMENTARY,25.6,NA,23.1,NA,9.9,NA,20.8,NA,Kershaw,610019,6450 S LOWE AVE,ES,41.77645281,-87.64089203,c(-87.6408920254334,ENGLEWOOD
218,1.50163E+14,School,Kilmer Elem School,City of Chicago SD 299,Chicago,ELEMENTARY,27.8,27.6,19.7,12.9,13.7,8.3,33.9,26.4,Kilmer,610022,6700 N GREENVIEW AVE,ES,42.00364046,-87.66822247,c(-87.6682224666359,ROGERS PARK
219,1.50163E+14,School,King Academy of Social Justice,City of Chicago SD 299,Chicago,ELEMENTARY,46.2,NA,9,NA,6.9,NA,12.8,NA,King Es,610299,644 W 71ST ST,ES,41.76533498,-87.64133454,c(-87.6413345407305,ENGLEWOOD
220,1.50163E+14,School,Kinzie Elem School,City of Chicago SD 299,Chicago,ELEMENTARY,22.3,21.6,60.9,59.3,35.1,30.8,58.7,56,Kinzie,610026,5625 S MOBILE AVE,ES,41.78996463,-87.7794826,c(-87.7794825999789,GARFIELD RIDGE
221,1.50163E+14,School,Kipling Elem School,City of Chicago SD 299,Chicago,ELEMENTARY,27.5,NA,18.3,NA,7.6,NA,42.1,NA,Kipling,610027,9351 S LOWE AVE,ES,41.72362691,-87.63952072,c(-87.6395207211877,WASHINGTON HEIGHTS
222,1.50163E+14,School,Kozminski Elem Community Academy,City of Chicago SD 299,Chicago,ELEMENTARY,45.5,NA,12.1,NA,6.7,NA,17,NA,Kozminski,610030,936 E 54TH ST,ES,41.79800188,-87.60248145,c(-87.6024814478024,HYDE PARK
223,1.50163E+14,School,LaSalle Elem Language Academy,City of Chicago SD 299,Chicago,ELEMENTARY,22.1,22,46.4,55.2,41.5,40.4,53.4,57.9,Lasalle,610033,1734 N ORLEANS ST,ES,41.91389953,-87.63756486,c(-87.6375648635043,LINCOLN PARK
224,1.50163E+14,School,LaSalle II Lang Acad Elem Sch,City of Chicago SD 299,Chicago,ELEMENTARY,17.5,23.4,54.5,51,50.7,41.3,81,76.7,Lasalle Ii,610520,1148 N HONORE ST,ES,41.90291446,-87.67369603,c(-87.6736960317108,WEST TOWN
225,1.50163E+14,School,Langford A Elem School,City of Chicago SD 299,Chicago,ELEMENTARY,27.6,NA,9.8,36.4,5.4,9.1,15,NA,Langford,609869,6010 S THROOP ST,ES,41.78468086,-87.65716921,c(-87.657169205368,WEST ENGLEWOOD
226,1.50163E+14,School,Lara Elem Academy,City of Chicago SD 299,Chicago,ELEMENTARY,36.9,36.6,14.6,14.9,3.9,4.1,35.3,36.9,Lara,609993,4619 S WOLCOTT AVE,ES,41.8097703,-87.67218159,c(-87.6721815932935,NEW CITY
227,1.50163E+14,School,Lavizzo Elem School,City of Chicago SD 299,Chicago,ELEMENTARY,27,NA,8.8,NA,0,NA,28.1,NA,Lavizzo,610208,138 W 109TH ST,ES,41.69626235,-87.62714769,c(-87.6271476879219,ROSELAND
228,1.50163E+14,School,Lawndale Elem Community Academy,City of Chicago SD 299,Chicago,ELEMENTARY,48.4,NA,6.1,NA,1.5,NA,2.2,NA,Lawndale,610034,3500 W DOUGLAS BLVD,ES,41.86296002,-87.71295679,c(-87.7129567867986,NORTH LAWNDALE
229,1.50163E+14,School,Lee Elem School,City of Chicago SD 299,Chicago,ELEMENTARY,31.6,31.2,22,21.9,21.5,21.4,36.8,36.6,Lee,610291,6448 S TRIPP AVE,ES,41.77530539,-87.72888429,c(-87.7288842929312,WEST LAWN
230,1.50163E+14,School,Leland Elem School,City of Chicago SD 299,Chicago,ELEMENTARY,56.5,NA,2.1,NA,0.5,NA,14.5,NA,Leland,610305,512 S LAVERGNE AVE,ES,41.87358678,-87.74927555,c(-87.7492755544529,AUSTIN
231,1.50163E+14,School,Lenart Elem Regional Gifted Ctr,City of Chicago SD 299,Chicago,ELEMENTARY,6,NA,82.8,NA,63.2,NA,95.7,NA,Lenart,610298,8101 S LASALLE ST,ES,41.74718592,-87.62804036,c(-87.6280403631622,CHATHAM
232,1.50163E+14,School,Lewis Elem School,City of Chicago SD 299,Chicago,ELEMENTARY,43.7,36.4,10.5,13.5,2.6,3.6,16.7,16.7,Lewis,610036,1431 N LEAMINGTON AVE,ES,41.90682605,-87.75454995,c(-87.7545499505739,AUSTIN
233,1.50163E+14,School,Libby Elem School,City of Chicago SD 299,Chicago,ELEMENTARY,48.7,47.2,16.8,19.4,7.3,10.4,30.6,46.2,Libby,610037,5300 S LOOMIS BLVD,ES,41.79768483,-87.65993282,c(-87.6599328179472,NEW CITY
234,1.50163E+14,School,Lincoln Elem School,City of Chicago SD 299,Chicago,ELEMENTARY,14.3,17.1,74.1,71.4,69.8,58.2,82.9,75,Lincoln,610038,615 W KEMPER PL,ES,41.92452482,-87.6444973,c(-87.6444973039437,LINCOLN PARK
235,1.50163E+14,School,Linne Elem School,City of Chicago SD 299,Chicago,ELEMENTARY,20.9,24.1,29.8,25,24.1,18.5,42.4,37.9,Linne,NA,NA,NA,NA,NA,c(NA,NA
236,1.50163E+14,School,Little Village Elem School,City of Chicago SD 299,Chicago,ELEMENTARY,37.6,37.5,16.8,16.9,6.1,6,41.2,41.2,Little Village,609834,2620 S LAWNDALE AVE,ES,41.84369812,-87.71731895,c(-87.7173189526858,SOUTH LAWNDALE
237,1.50163E+14,School,Lloyd Elem School,City of Chicago SD 299,Chicago,ELEMENTARY,36.7,36.4,15.2,15.3,8,8.2,25.2,25.6,Lloyd,610040,2103 N LAMON AVE,ES,41.9188141,-87.74851501,c(-87.7485150135081,BELMONT CRAGIN
238,1.50163E+14,School,Locke  J Elem School,City of Chicago SD 299,Chicago,ELEMENTARY,40.2,39.6,19.8,19,7.5,6.9,36.4,37.3,Locke J,610041,2828 N OAK PARK AVE,ES,41.93176235,-87.79560407,c(-87.7956040710808,MONTCLARE
239,1.50163E+14,School,Lovett Elem School,City of Chicago SD 299,Chicago,ELEMENTARY,20.6,26.9,19.7,22.2,10.3,8.3,24.2,41.7,Lovett,610043,6333 W BLOOMINGDALE AVE,ES,41.91271803,-87.78391885,c(-87.7839188468376,AUSTIN
240,1.50163E+14,School,Lowell Elem School,City of Chicago SD 299,Chicago,ELEMENTARY,40.7,34.9,17,18.3,4,4.6,30,26.7,Lowell,610044,3320 W HIRSCH ST,ES,41.90651959,-87.710217,c(-87.7102170019534,HUMBOLDT PARK
241,1.50163E+14,School,Lozano Elem Bilingual & Intl Ctr,City of Chicago SD 299,Chicago,ELEMENTARY,56.4,61.6,8.9,3.8,6.9,5.1,30.3,32,Lozano,610029,1501 N GREENVIEW AVE,ES,41.90888613,-87.66509327,c(-87.665093271982,WEST TOWN
242,1.50163E+14,School,Lyon Elem School,City of Chicago SD 299,Chicago,ELEMENTARY,35.4,36.7,23.2,22.5,15.1,14.2,48.8,47.7,Lyon,610046,2941 N MCVICKER AVE,ES,41.93419216,-87.7771742,c(-87.7771741989107,BELMONT CRAGIN
243,1.50163E+14,School,Madero Middle School,City of Chicago SD 299,Chicago,ELEMENTARY,36.3,35.8,15,15.1,6.3,6.3,30,30,Madero,610215,3202 W 28TH ST,ES,41.84095691,-87.70506426,c(-87.7050642600651,SOUTH LAWNDALE
244,1.50163E+14,School,Madison Elem School,City of Chicago SD 299,Chicago,ELEMENTARY,53.5,NA,18.4,NA,1.8,NA,31.3,NA,Madison,610047,7433 S DORCHESTER AVE,ES,41.75954806,-87.5907124,c(-87.5907123955696,SOUTH SHORE
245,1.50163E+14,School,Manierre Elem School,City of Chicago SD 299,Chicago,ELEMENTARY,70.1,93.3,4.3,NA,0.7,NA,5.6,NA,Manierre,610048,1420 N HUDSON AVE,ES,41.90824688,-87.63982651,c(-87.6398265134837,NEAR NORTH SIDE
246,1.50163E+14,School,Mann Elem School,City of Chicago SD 299,Chicago,ELEMENTARY,33.2,NA,22.1,NA,8.5,NA,37.3,NA,Mann,610052,8050 S CHAPPEL AVE,ES,41.74827413,-87.57481564,c(-87.5748156373219,SOUTH CHICAGO
247,1.50163E+14,School,Marine Leadership Academy - Ames,City of Chicago SD 299,Chicago,ELEMENTARY,53,52.5,14,14.4,7.2,7.3,23.8,24.2,Marine Leadership  - Ames,NA,NA,NA,NA,NA,c(NA,NA
248,1.50163E+14,School,Marquette Elem School,City of Chicago SD 299,Chicago,ELEMENTARY,25.8,21.9,11.9,11.3,9.3,9,16.7,17.4,Marquette,610053,6550 S RICHMOND ST,ES,41.77388108,-87.6970298,c(-87.6970297992242,CHICAGO LAWN
249,1.50163E+14,School,Marsh Elem School,City of Chicago SD 299,Chicago,ELEMENTARY,34.1,32.3,20.7,21.1,7.8,7.8,36.1,35.5,Marsh,610054,9822 S EXCHANGE AVE,ES,41.71658802,-87.55248343,c(-87.5524834262898,SOUTH DEERING
250,1.50163E+14,School,Mason Elem School,City of Chicago SD 299,Chicago,ELEMENTARY,45.5,NA,13.2,NA,2.9,NA,11.9,NA,Mason,610056,4217 W 18TH ST,ES,41.8568637,-87.73167243,c(-87.7316724331692,NORTH LAWNDALE
251,1.50163E+14,School,Mayer Elem School,City of Chicago SD 299,Chicago,ELEMENTARY,16.9,15.9,70.1,62.7,58.4,33.3,79.6,70.6,Mayer,610059,2250 N CLIFTON AVE,ES,41.92320352,-87.65728744,c(-87.6572874390613,LINCOLN PARK
252,1.50163E+14,School,Mays Elem Academy,City of Chicago SD 299,Chicago,ELEMENTARY,41.2,NA,4,NA,0.7,NA,17,NA,Mays,610290,6656 S NORMAL BLVD,ES,41.7727275,-87.63727735,c(-87.6372773472151,ENGLEWOOD
253,1.50163E+14,School,McAuliffe Elem School,City of Chicago SD 299,Chicago,ELEMENTARY,43.2,41.3,13,12.5,5.1,5.2,29.6,30.3,Mcauliffe,609968,1841 N SPRINGFIELD AVE,ES,41.91481634,-87.72393113,c(-87.7239311320322,HERMOSA
254,1.50163E+14,School,McCormick Elem School,City of Chicago SD 299,Chicago,ELEMENTARY,35.5,35.7,8.3,8.5,2.6,2.1,32.5,33.3,Mccormick,610063,2712 S SAWYER AVE,ES,41.84226717,-87.70630009,c(-87.7063000926664,SOUTH LAWNDALE
255,1.50163E+14,School,McCutcheon Elem School,City of Chicago SD 299,Chicago,ELEMENTARY,37.6,36.6,21.4,17.3,9.9,5.8,24.5,27.3,Mccutcheon,610269,4865 N SHERIDAN RD,ES,41.97094908,-87.65475845,c(-87.6547584478542,UPTOWN
256,1.50163E+14,School,McDade Elem Classical School,City of Chicago SD 299,Chicago,ELEMENTARY,6.7,NA,74,NA,58,NA,91.4,NA,Mcdade,610066,8801 S INDIANA AVE,ES,41.73454991,-87.61921444,c(-87.6192144436574,CHATHAM
257,1.50163E+14,School,McDowell Elem School,City of Chicago SD 299,Chicago,ELEMENTARY,17.3,NA,50,NA,37.5,NA,33.3,NA,Mcdowell,610312,1419 E 89TH ST,ES,41.73313231,-87.5895895,c(-87.5895894984688,CALUMET HEIGHTS
258,1.50163E+14,School,McKay Elem School,City of Chicago SD 299,Chicago,ELEMENTARY,39.2,39.2,11.7,16.2,7.6,11.6,16,27.9,Mckay,610067,6901 S FAIRFIELD AVE,ES,41.76814276,-87.6917865,c(-87.6917865020783,CHICAGO LAWN
259,1.50163E+14,School,McNair Elem School,City of Chicago SD 299,Chicago,ELEMENTARY,35.1,34.3,8.9,12.2,8.3,14,19.8,35.7,Mcnair,610282,4820 W WALTON ST,ES,41.89781907,-87.74673078,c(-87.746730779136,AUSTIN
260,1.50163E+14,School,McPherson Elem School,City of Chicago SD 299,Chicago,ELEMENTARY,20.9,22.8,24.9,19.1,15.1,10.1,30.8,22,Mcpherson,610070,4728 N WOLCOTT AVE,ES,41.96784687,-87.67628825,c(-87.6762882521465,LINCOLN SQUARE
261,1.50163E+14,School,Melody Elem School,City of Chicago SD 299,Chicago,ELEMENTARY,7.6,NA,6.7,NA,3.9,NA,8.2,NA,Melody,610293,3937 W WILCOX ST,ES,41.87879893,-87.72466123,c(-87.7246612313484,WEST GARFIELD PARK
262,1.50163E+14,School,Metcalfe Elem Community Academy,City of Chicago SD 299,Chicago,ELEMENTARY,42.6,NA,7.4,NA,1.1,NA,11.1,NA,Metcalfe,609902,12339 S NORMAL AVE,ES,41.66944402,-87.63430552,c(-87.634305521243,WEST PULLMAN
263,1.50163E+14,School,Minnie Minoso Academy,City of Chicago SD 299,Chicago,ELEMENTARY,39.8,50.5,32,33.8,17.3,17.6,35.8,18.2,Minoso,610062,3527 S WALLACE ST,ES,41.82999286,-87.64110258,c(-87.641102575319,BRIDGEPORT
264,1.50163E+14,School,Mireles Elem Academy,City of Chicago SD 299,Chicago,ELEMENTARY,43.5,37.2,13.9,20.3,5.4,9.4,28.9,34.8,Mireles,610171,9000 S EXCHANGE AVE,ES,41.73171692,-87.55278794,c(-87.5527879443839,SOUTH CHICAGO
265,1.50163E+14,School,Mitchell Elem School,City of Chicago SD 299,Chicago,ELEMENTARY,17.9,20.7,52.6,42.6,37.7,24.5,71.1,58.8,Mitchell,610073,2233 W OHIO ST,ES,41.89208217,-87.68318459,c(-87.6831845863575,WEST TOWN
266,1.50163E+14,School,Mollison Elem School,City of Chicago SD 299,Chicago,ELEMENTARY,56.1,NA,4.3,NA,2.9,NA,29.6,NA,Mollison,610276,4415 S DR MARTIN L KING JR DR,ES,41.81435828,-87.61661794,c(-87.6166179440635,GRAND BOULEVARD
267,1.50163E+14,School,Monarcas Academy,City of Chicago SD 299,Chicago,ELEMENTARY,37.2,36.6,27,27.2,21.8,22.4,45.1,46.3,Monarcas Academy,610203,5815 S HOMAN AVE,ES,41.78752323,-87.70817918,c(-87.7081791840253,GAGE PARK
268,1.50163E+14,School,Monroe Elem School,City of Chicago SD 299,Chicago,ELEMENTARY,37.8,37.7,19.5,19.1,7.3,6.8,43.4,44.1,Monroe,610074,3651 W SCHUBERT AVE,ES,41.9299886,-87.71922375,c(-87.7192237509544,LOGAN SQUARE
269,1.50163E+14,School,Moos Elem School,City of Chicago SD 299,Chicago,ELEMENTARY,37.1,38,14.9,15.2,5,5.6,31.4,32.2,Moos,610076,1711 N CALIFORNIA AVE,ES,41.91250548,-87.69694139,c(-87.6969413861712,WEST TOWN
270,1.50163E+14,School,Morrill Elem Math & Sci School,City of Chicago SD 299,Chicago,ELEMENTARY,39.8,41.8,12.5,11.3,4.3,4.2,31.5,31.7,Morrill,610077,6011 S ROCKWELL ST,ES,41.78431328,-87.68854926,c(-87.688549255245,CHICAGO LAWN
271,1.50163E+14,School,Morton Elem Career Academy,City of Chicago SD 299,Chicago,ELEMENTARY,39.5,41.9,24.8,27.3,2.8,8.3,11.8,NA,Morton,610257,431 N TROY ST,ES,41.88917814,-87.70510783,c(-87.7051078304836,HUMBOLDT PARK
272,1.50163E+14,School,Mosaic School of Fine Arts,City of Chicago SD 299,Chicago,ELEMENTARY,35.4,29.4,27.2,18.4,15.6,6.5,44.5,40,Mosaic,609804,6710 N WASHTENAW AVE,ES,42.00341161,-87.69746282,c(-87.6974628220499,WEST RIDGE
273,1.50163E+14,School,Mount Greenwood Elem School,City of Chicago SD 299,Chicago,ELEMENTARY,12.3,11.9,45.4,41,45.7,44.4,74.6,76.7,Mount Greenwood,610082,10841 S HOMAN AVE,ES,41.69573386,-87.70580994,c(-87.7058099447215,MOUNT GREENWOOD
274,1.50163E+14,School,Mount Vernon Elem School,City of Chicago SD 299,Chicago,ELEMENTARY,39.7,NA,15.9,NA,1.3,NA,8.9,NA,Mount Vernon,610086,10540 S MORGAN ST,ES,41.70195212,-87.64765249,c(-87.6476524868628,WASHINGTON HEIGHTS
275,1.50163E+14,School,Mozart Elem School,City of Chicago SD 299,Chicago,ELEMENTARY,45.1,44.7,14.5,14.4,9.6,9.4,27,26.9,Mozart,610088,2200 N HAMLIN AVE,ES,41.92090965,-87.72188814,c(-87.7218881446685,LOGAN SQUARE
276,1.50163E+14,School,Murphy Elem School,City of Chicago SD 299,Chicago,ELEMENTARY,31.5,36,30.4,20.7,25.2,14.4,49.5,39,Murphy,610089,3539 W GRACE ST,ES,41.95007775,-87.71683186,c(-87.7168318552213,IRVING PARK
277,1.50163E+14,School,Murray Elem Language Academy,City of Chicago SD 299,Chicago,ELEMENTARY,30.3,NA,33.3,NA,16.8,NA,43.8,NA,Murray,610090,5335 S KENWOOD AVE,ES,41.79853549,-87.59334041,c(-87.5933404053227,HYDE PARK
278,1.50163E+14,School,Nash Elem School,City of Chicago SD 299,Chicago,ELEMENTARY,46.3,51.2,4.1,0,0,0,9.1,NA,Nash,610092,4837 W ERIE ST,ES,41.89180975,-87.74793588,c(-87.7479358782032,AUSTIN
279,1.50163E+14,School,National Teachers Elem Academy,City of Chicago SD 299,Chicago,ELEMENTARY,29.6,27.1,32.9,43.3,23.1,42.9,45.4,37.5,National Teachers,610231,55 W CERMAK RD,ES,41.85279977,-87.62930833,c(-87.6293083298272,NEAR SOUTH SIDE
280,1.50163E+14,School,Neil Elem School,City of Chicago SD 299,Chicago,ELEMENTARY,38.3,NA,15.1,NA,3.8,NA,29.8,NA,Neil,610093,8555 S MICHIGAN AVE,ES,41.7384066,-87.62093346,c(-87.620933455108,CHATHAM
281,1.50163E+14,School,Nettelhorst Elem School,City of Chicago SD 299,Chicago,ELEMENTARY,21.1,22.3,52,28.6,47.7,28.6,66.1,50,Nettelhorst,610094,3252 N BROADWAY ST,ES,41.94163655,-87.64456122,c(-87.6445612223081,LAKE VIEW
282,1.50163E+14,School,New Field Elem School,City of Chicago SD 299,Chicago,ELEMENTARY,33.6,30.7,17.8,11.5,11.7,8.2,NA,NA,New Field,610284,1707 W MORSE AVE,ES,42.00770257,-87.67316833,c(-87.6731683285629,ROGERS PARK
283,1.50163E+14,School,Newberry Elem Math & Science Acad,City of Chicago SD 299,Chicago,ELEMENTARY,40.2,34.7,34.1,34,18.6,22.6,49.3,46.7,Newberry,610095,700 W WILLOW ST,ES,41.91394722,-87.64599025,c(-87.6459902517892,LINCOLN PARK
284,1.50163E+14,School,Nicholson Technology Acad Elem Sch,City of Chicago SD 299,Chicago,ELEMENTARY,24.5,40.6,7.8,16.7,1.1,5.9,10.2,NA,Nicholson,609793,6006 S PEORIA ST,ES,41.78494238,-87.64745284,c(-87.6474528424479,ENGLEWOOD
285,1.50163E+14,School,Nightingale Elem School,City of Chicago SD 299,Chicago,ELEMENTARY,27.3,27,18.1,18.1,13.5,13.3,26.6,26.8,Nightingale,610096,5250 S ROCKWELL ST,ES,41.79771438,-87.68913886,c(-87.689138864163,GAGE PARK
286,1.50163E+14,School,Ninos Heroes Elem Academic Ctr,City of Chicago SD 299,Chicago,ELEMENTARY,43.8,25,10.9,9.4,4.7,12.5,29.8,30.8,Ninos Heroes,609961,8344 S COMMERCIAL AVE,ES,41.74375308,-87.55186172,c(-87.5518617188553,SOUTH CHICAGO
287,1.50163E+14,School,Nixon Elem School,City of Chicago SD 299,Chicago,ELEMENTARY,40.8,39.5,9.4,8.8,7.6,7.6,22.1,21,Nixon,610097,2121 N KEELER AVE,ES,41.91958145,-87.73142009,c(-87.7314200908048,HERMOSA
288,1.50163E+14,School,Nobel Elem School,City of Chicago SD 299,Chicago,ELEMENTARY,33.8,32.2,19.8,20.2,11.1,11.1,36.3,36,Nobel,610098,4127 W HIRSCH ST,ES,41.90615515,-87.72995463,c(-87.7299546317707,HUMBOLDT PARK
289,1.50163E+14,School,North River Elem School,City of Chicago SD 299,Chicago,ELEMENTARY,21.2,20.6,20.4,17.4,13,11.5,34,32.6,North River,610354,3729 W LELAND AVE,ES,41.96641068,-87.7212259,c(-87.7212201137654,ALBANY PARK
290,1.50163E+14,School,Northwest Middle School,City of Chicago SD 299,Chicago,ELEMENTARY,41.9,41.2,6.7,6.3,5.6,6,15.3,16,Northwest,610051,5252 W PALMER ST,ES,41.92061097,-87.75792051,c(-87.7579205092804,BELMONT CRAGIN
291,1.50163E+14,School,Norwood Park Elem School,City of Chicago SD 299,Chicago,ELEMENTARY,18.2,12.9,50.6,47.2,34.2,28.1,48.1,48.5,Norwood Park,610099,5900 N NINA AVE,ES,41.98815251,-87.80297944,c(-87.8029794402888,NORWOOD PARK
292,1.50163E+14,School,OKeeffe Elem School,City of Chicago SD 299,Chicago,ELEMENTARY,41.1,NA,13.4,NA,3.8,NA,18.9,NA,Okeeffe,610103,6940 S MERRILL AVE,ES,41.76860231,-87.57280595,c(-87.5728059549734,SOUTH SHORE
293,1.50163E+14,School,OToole Elem School,City of Chicago SD 299,Chicago,ELEMENTARY,49,51.2,8,10.2,1.9,2.1,18.9,29.4,Otoole,610108,6550 S SEELEY AVE,ES,41.77457107,-87.674865,c(-87.6748650000608,WEST ENGLEWOOD
294,1.50163E+14,School,Ogden Elem School,City of Chicago SD 299,Chicago,ELEMENTARY,41.5,44.7,20.8,23.6,17.9,15.9,44.5,54.8,Ogden Es,610101,24 W WALTON ST,ES,41.89997649,-87.62929657,c(-87.6292965693848,NEAR NORTH SIDE
295,1.50163E+14,School,Oglesby Elem School,City of Chicago SD 299,Chicago,ELEMENTARY,46.6,NA,9,NA,2.9,NA,19,NA,Oglesby,610102,7646 S GREEN ST,ES,41.75467006,-87.6454695,c(-87.6454694968904,AUBURN GRESHAM
296,1.50163E+14,School,Onahan Elem School,City of Chicago SD 299,Chicago,ELEMENTARY,23,31.4,43.4,39.8,37.3,29.9,72.3,70.7,Onahan,610104,6634 W RAVEN ST,ES,41.99379035,-87.79310826,c(-87.7931082553418,NORWOOD PARK
297,1.50163E+14,School,Oriole Park Elem School,City of Chicago SD 299,Chicago,ELEMENTARY,23.3,29.1,55.1,49.1,45.7,33.3,59.8,66.7,Oriole Park,610105,5424 N OKETO AVE,ES,41.97850138,-87.81205404,c(-87.8120540397611,NORWOOD PARK
298,1.50163E+14,School,Orozco Elem Fine Arts & Sciences,City of Chicago SD 299,Chicago,ELEMENTARY,12.2,12.3,50,49.7,29.5,29.7,65,65,Orozco,610329,1940 W 18TH ST,ES,41.85775481,-87.67521046,c(-87.6752104589112,LOWER WEST SIDE
299,1.50163E+14,School,Ortiz De Dominguez Elem School,City of Chicago SD 299,Chicago,ELEMENTARY,38,37.5,NA,NA,NA,NA,NA,NA,Ortiz De Dominguez,609950,3000 S LAWNDALE AVE,ES,41.83879052,-87.71719032,c(-87.7171903201514,SOUTH LAWNDALE
300,1.50163E+14,School,Otis Elem School,City of Chicago SD 299,Chicago,ELEMENTARY,50.7,47.3,16.2,17.4,8.4,9.1,16.9,19.1,Otis,610107,525 N ARMOUR ST,ES,41.89180608,-87.66542624,c(-87.6654262359055,WEST TOWN
301,1.50163E+14,School,Owen Elem Scholastic Academy,City of Chicago SD 299,Chicago,ELEMENTARY,15.2,NA,19.2,NA,11.4,NA,41.2,NA,Owen,610109,8247 S CHRISTIANA AVE,ES,41.74284992,-87.70574909,c(-87.7057490877654,ASHBURN
302,1.50163E+14,School,Owens Community Academy ES,City of Chicago SD 299,Chicago,ELEMENTARY,40.4,NA,17.9,NA,7,NA,18.8,NA,Owens,609943,12302 S STATE ST,ES,41.67061754,-87.62254566,c(-87.6225456606249,WEST PULLMAN
303,1.50163E+14,School,Palmer Elem School,City of Chicago SD 299,Chicago,ELEMENTARY,33.1,37.4,32.8,28.9,18.6,12.3,43.9,38.7,Palmer,610111,5051 N KENNETH AVE,ES,41.97328939,-87.73921295,c(-87.7392129454413,ALBANY PARK
304,1.50163E+14,School,Park Manor Elem School,City of Chicago SD 299,Chicago,ELEMENTARY,19.7,NA,12.5,NA,3.8,NA,23,NA,Park Manor,610115,7037 S RHODES AVE,ES,41.76647654,-87.61154559,c(-87.6115455930077,GREATER GRAND CROSSING
305,1.50163E+14,School,Parker Elem Community Academy,City of Chicago SD 299,Chicago,ELEMENTARY,45,NA,14,NA,4.5,NA,15.6,NA,Parker,610112,6800 S STEWART AVE,ES,41.7707798,-87.63408586,c(-87.6340858560291,ENGLEWOOD
306,1.50163E+14,School,Parkside Elem Community Academy,City of Chicago SD 299,Chicago,ELEMENTARY,44.5,NA,18.1,NA,3.6,NA,15.6,NA,Parkside,610116,6938 S EAST END AVE,ES,41.76855519,-87.58295438,c(-87.5829543827737,SOUTH SHORE
307,1.50163E+14,School,Pasteur Elem School,City of Chicago SD 299,Chicago,ELEMENTARY,41.9,41.5,37.9,37.6,29.3,28.2,NA,NA,Pasteur,610117,5825 S KOSTNER AVE,ES,41.78689538,-87.73266646,c(-87.7326664552034,WEST ELSDON
308,1.50163E+14,School,Peck Elem School,City of Chicago SD 299,Chicago,ELEMENTARY,30.3,30.6,20.3,20.2,10.4,10.3,NA,NA,Peck,610120,3826 W 58TH ST,ES,41.78789897,-87.71921626,c(-87.7192162610686,WEST ELSDON
309,1.50163E+14,School,Peirce Elem Intl Studies School,City of Chicago SD 299,Chicago,ELEMENTARY,18.7,22.9,35.4,15.3,29.5,13.8,63.2,46.9,Peirce,610122,1423 W BRYN MAWR AVE,ES,41.98345579,-87.66585004,c(-87.6658500369953,EDGEWATER
310,1.50163E+14,School,Penn Elem School,City of Chicago SD 299,Chicago,ELEMENTARY,47.3,NA,7.9,NA,4,NA,52.3,NA,Penn,610123,1616 S AVERS AVE,ES,41.85837242,-87.72238555,c(-87.7223855479198,NORTH LAWNDALE
311,1.50163E+14,School,Perez Elem School,City of Chicago SD 299,Chicago,ELEMENTARY,27.7,27.6,25.1,27,12.6,12.9,60.7,63,Perez,609872,1241 W 19TH ST,ES,41.85602872,-87.65798013,c(-87.6579801276878,LOWER WEST SIDE
312,1.50163E+14,School,Pershing Elem Humanities Magnet,City of Chicago SD 299,Chicago,ELEMENTARY,30.4,NA,21.2,NA,7.4,NA,33,NA,Pershing,610126,3200 S CALUMET AVE,ES,41.83652695,-87.61833765,c(-87.6183376536682,DOUGLAS
313,1.50163E+14,School,Peterson Elem School,City of Chicago SD 299,Chicago,ELEMENTARY,28,40.6,30.5,15,25.7,10.2,57.2,41.4,Peterson,610127,5510 N CHRISTIANA AVE,ES,41.98155714,-87.71258258,c(-87.712582577667,NORTH PARK
314,1.50163E+14,School,Piccolo Elem Specialty School,City of Chicago SD 299,Chicago,ELEMENTARY,40.4,34.2,4.2,3.7,1.7,2.3,21.8,20.3,Piccolo,610106,1040 N KEELER AVE,ES,41.90013966,-87.7312606,c(-87.7312605962778,HUMBOLDT PARK
315,1.50163E+14,School,Pickard Elem School,City of Chicago SD 299,Chicago,ELEMENTARY,21.8,21.1,33.5,33.7,20.2,20.7,36.8,35.9,Pickard,610129,2301 W 21ST PL,ES,41.8529004,-87.68329074,c(-87.683290742678,LOWER WEST SIDE
316,1.50163E+14,School,Pilsen Elem Community Academy,City of Chicago SD 299,Chicago,ELEMENTARY,25.7,24.9,11.2,11.7,6.6,7.3,15.7,16.3,Pilsen,610013,1420 W 17TH ST,ES,41.85884888,-87.66220943,c(-87.6622094334251,LOWER WEST SIDE
317,1.50163E+14,School,Pirie Elem Fine Arts & Academic C,City of Chicago SD 299,Chicago,ELEMENTARY,44.5,NA,7.4,NA,7.4,NA,27.3,NA,Pirie,610130,650 E 85TH ST,ES,41.74034023,-87.60789114,c(-87.6078911370516,CHATHAM
318,1.50163E+14,School,Plamondon Elem School,City of Chicago SD 299,Chicago,ELEMENTARY,38.9,45.1,19.1,22.4,8.7,10,44.4,57.1,Plamondon,610131,2642 W 15TH PL,ES,41.8602589,-87.69252575,c(-87.6925257509659,NORTH LAWNDALE
319,1.50163E+14,School,Plato Learning Acad  Elem School,City of Chicago SD 299,Chicago,ELEMENTARY,32.1,NA,5.9,NA,2.2,NA,11.3,NA,Plato,400068,5545 W HARRISON ST,ES,41.87276043,-87.76333693,c(-87.7633369323392,AUSTIN
320,1.50163E+14,School,Poe Elem Classical School,City of Chicago SD 299,Chicago,ELEMENTARY,7.5,NA,80.4,92.3,54.3,69.2,82.1,NA,Poe,610132,10538 S LANGLEY AVE,ES,41.70263,-87.60641917,c(-87.6064191733991,PULLMAN
321,1.50163E+14,School,Portage Park Elem School,City of Chicago SD 299,Chicago,ELEMENTARY,33.7,37.6,22.3,17.4,15.5,11,49.4,45.2,Portage Park,610135,5330 W BERTEAU AVE,ES,41.95698764,-87.761007,c(-87.7610070035028,PORTAGE PARK
322,1.50163E+14,School,Powell Elem Paideia Comm Academy,City of Chicago SD 299,Chicago,ELEMENTARY,39.9,61.1,10.3,NA,4.9,NA,25.6,NA,Powell,610281,7511 S SOUTH SHORE DR,ES,41.7603318,-87.55678925,c(-87.5567892487747,SOUTH SHORE
323,1.50163E+14,School,Prescott Elem School,City of Chicago SD 299,Chicago,ELEMENTARY,15.1,17.5,76.5,69.8,53.9,41.9,69.9,66.7,Prescott,610136,1632 W WRIGHTWOOD AVE,ES,41.9288411,-87.6695275,c(-87.6695275042627,LINCOLN PARK
324,1.50163E+14,School,Prieto Math-Science Elem Sch,City of Chicago SD 299,Chicago,ELEMENTARY,31,31.3,15.1,14.8,5.4,5.1,19.6,19.2,Prieto,610533,2231 N CENTRAL AVE,ES,41.92131758,-87.76578057,c(-87.7657805713026,BELMONT CRAGIN
325,1.50163E+14,School,Pritzker Elem School,City of Chicago SD 299,Chicago,ELEMENTARY,16,25.6,63.4,58.5,51.5,41.5,72.5,63.3,Pritzker,610229,2009 W SCHILLER ST,ES,41.90705301,-87.67776098,c(-87.6777609807151,WEST TOWN
326,1.50163E+14,School,Prussing Elem School,City of Chicago SD 299,Chicago,ELEMENTARY,38.5,45.7,28,20.7,19.6,11.4,42.1,37.1,Prussing,610137,4650 N MENARD AVE,ES,41.96561907,-87.77241417,c(-87.772414166281,PORTAGE PARK
327,1.50163E+14,School,Pulaski Intl Sch of Chicago,City of Chicago SD 299,Chicago,ELEMENTARY,19.2,26.5,45.8,32.4,34.9,16.8,56.8,46.3,Pulaski,610138,2230 W MCLEAN AVE,ES,41.91848628,-87.68380143,c(-87.6838014306395,LOGAN SQUARE
328,1.50163E+14,School,Pullman Elem School,City of Chicago SD 299,Chicago,ELEMENTARY,41,37.7,9.7,0,5.1,0,16.4,0,Pullman,610139,11311 S FORRESTVILLE AVE,ES,41.68881935,-87.60943097,c(-87.6094309674284,PULLMAN
329,1.50163E+14,School,Randolph Elem School,City of Chicago SD 299,Chicago,ELEMENTARY,34.3,51.9,16.3,30,4.3,3.3,27.3,50,Randolph,609941,7316 S HOYNE AVE,ES,41.76061413,-87.67596551,c(-87.6759655135521,WEST ENGLEWOOD
330,1.50163E+14,School,Ravenswood Elem School,City of Chicago SD 299,Chicago,ELEMENTARY,22.8,25.2,56.7,44.4,40.2,22,69.4,53.7,Ravenswood,610141,4332 N PAULINA ST,ES,41.96074569,-87.67092242,c(-87.6709224191891,LAKE VIEW
331,1.50163E+14,School,Ray Elem School,City of Chicago SD 299,Chicago,ELEMENTARY,30.1,39.1,17.7,13.3,16.2,16.7,31.4,NA,Ray,610142,5631 S KIMBARK AVE,ES,41.79234788,-87.59475207,c(-87.5947520720135,HYDE PARK
332,1.50163E+14,School,Reavis Elem Math & Sci Spec Schl,City of Chicago SD 299,Chicago,ELEMENTARY,50.2,NA,7.9,NA,0,NA,20.4,NA,Reavis,610143,834 E 50TH ST,ES,41.80417379,-87.60492543,c(-87.6049254304377,KENWOOD
333,1.50163E+14,School,Reilly Elem School,City of Chicago SD 299,Chicago,ELEMENTARY,27.4,26.4,15.6,15.3,8.7,8.4,32.6,32.9,Reilly,610144,3650 W SCHOOL ST,ES,41.94109399,-87.71954054,c(-87.7195405442147,AVONDALE
334,1.50163E+14,School,Reinberg Elem School,City of Chicago SD 299,Chicago,ELEMENTARY,34.1,36,21.2,21.2,9.6,8.4,44.9,45.5,Reinberg,610145,3425 N MAJOR AVE,ES,41.9430189,-87.76898262,c(-87.7689826187585,PORTAGE PARK
335,1.50163E+14,School,Revere Elem School,City of Chicago SD 299,Chicago,ELEMENTARY,47.5,NA,1.6,NA,0,NA,0,NA,Revere,610146,1010 E 72ND ST,ES,41.76419587,-87.60017682,c(-87.6001768232739,GREATER GRAND CROSSING
336,1.50163E+14,School,Richardson Middle School,City of Chicago SD 299,Chicago,ELEMENTARY,33.8,33.7,22.2,22.4,16.5,16.6,37.6,37.9,Richardson,610588,6018 S KARLOV AVE,ES,41.78382632,-87.7254216,c(-87.72542159519,WEST LAWN
337,1.50163E+14,School,Robinson Elem School,City of Chicago SD 299,Chicago,ELEMENTARY,47.6,NA,25.9,NA,22.2,NA,NA,NA,Robinson,610256,4225 S LAKE PARK AVE,ES,41.81734933,-87.59906677,c(-87.5990667709746,OAKLAND
338,1.50163E+14,School,Rogers Elem School,City of Chicago SD 299,Chicago,ELEMENTARY,24.8,29.5,40.4,28,30.3,16.1,57.3,49,Rogers,610147,7345 N WASHTENAW AVE,ES,42.01526505,-87.69718539,c(-87.69718539374,WEST RIDGE
339,1.50163E+14,School,Rudolph Elem Learning Center,City of Chicago SD 299,Chicago,ELEMENTARY,NA,NA,NA,NA,NA,NA,NA,NA,Rudolph,610308,1628 W WASHINGTON BLVD,ES,41.88390676,-87.66809131,c(-87.668091306907,NEAR WEST SIDE
340,1.50163E+14,School,Ruggles Elem School,City of Chicago SD 299,Chicago,ELEMENTARY,46.5,NA,13.7,NA,3.8,NA,19.7,NA,Ruggles,610152,7831 S PRAIRIE AVE,ES,41.75194558,-87.61806645,c(-87.6180664473822,GREATER GRAND CROSSING
341,1.50163E+14,School,Ruiz Elem School,City of Chicago SD 299,Chicago,ELEMENTARY,41.7,41.5,19.5,19.6,10.5,10.9,40.2,39.6,Ruiz,610125,2410 S LEAVITT ST,ES,41.84810094,-87.68074453,c(-87.6807445348192,LOWER WEST SIDE
342,1.50163E+14,School,Ryder Elem Math & Sci Spec School,City of Chicago SD 299,Chicago,ELEMENTARY,39.6,NA,12.8,NA,6.5,NA,26.2,NA,Ryder,610153,8716 S WALLACE ST,ES,41.73537939,-87.6388427,c(-87.6388427003404,AUBURN GRESHAM
343,1.50163E+14,School,STEM Magnet Academy Elem,City of Chicago SD 299,Chicago,ELEMENTARY,11.3,22.5,59.5,46.9,46.9,32,68.7,54.5,Stem,610548,1522 W FILLMORE ST,ES,41.86857588,-87.66496913,c(-87.6649691328297,NEAR WEST SIDE
344,1.50163E+14,School,Sabin Elem Magnet School,City of Chicago SD 299,Chicago,ELEMENTARY,50.8,50,10,9.3,6.3,5.7,13.8,14.5,Sabin,610342,2216 W HIRSCH ST,ES,41.90681581,-87.68304994,c(-87.6830499419104,WEST TOWN
345,1.50163E+14,School,Sadlowski Elementary School,City of Chicago SD 299,Chicago,ELEMENTARY,50.3,50.7,13,13.6,6.5,6.8,37.4,37,Sadlowski,610586,3930 E 105TH ST,ES,41.70485859,-87.52798508,c(-87.5279850771597,EAST SIDE
346,1.50163E+14,School,Salazar Elem Bilingual Center,City of Chicago SD 299,Chicago,ELEMENTARY,48.9,43.2,12.3,13,6.8,7.7,48.5,57.1,Salazar,610250,160 W WENDELL ST,ES,41.90141653,-87.63363243,c(-87.6336324338283,NEAR NORTH SIDE
347,1.50163E+14,School,Sandoval Elem School,City of Chicago SD 299,Chicago,ELEMENTARY,34.2,33.5,18.4,18.8,19.6,19.7,40.9,40.8,Sandoval,610226,5534 S SAINT LOUIS AVE,ES,41.79234608,-87.71098733,c(-87.7109873318465,GAGE PARK
348,1.50163E+14,School,Saucedo Elem Scholastic Academy,City of Chicago SD 299,Chicago,ELEMENTARY,36.5,35.7,12.3,12.6,10.4,10.6,48,50.3,Saucedo,610017,2850 W 24TH BLVD,ES,41.84794072,-87.69731554,c(-87.6973155374104,SOUTH LAWNDALE
349,1.50163E+14,School,Sauganash Elem School,City of Chicago SD 299,Chicago,ELEMENTARY,14.6,19.5,57.1,38.8,55.8,33.8,79.2,78.1,Sauganash,610155,6040 N KILPATRICK AVE,ES,41.99116925,-87.74595144,c(-87.7459514444323,FOREST GLEN
350,1.50163E+14,School,Sawyer Elem School,City of Chicago SD 299,Chicago,ELEMENTARY,36.4,36.3,13.2,13,10.8,10.6,31.7,31.3,Sawyer,610157,5248 S SAWYER AVE,ES,41.7974982,-87.70500578,c(-87.7050057805379,GAGE PARK
351,1.50163E+14,School,Sayre Elem Language Academy,City of Chicago SD 299,Chicago,ELEMENTARY,41.3,43,17.8,17.5,9.7,13.3,39.7,36.6,Sayre,610158,1850 N NEWLAND AVE,ES,41.91415063,-87.79872071,c(-87.7987207051109,AUSTIN
352,1.50163E+14,School,Scammon Elem School,City of Chicago SD 299,Chicago,ELEMENTARY,36,34.8,29.5,29.6,22,21.7,44.7,41.7,Scammon,610159,4201 W HENDERSON ST,ES,41.9416776,-87.73217878,c(-87.7321787776788,IRVING PARK
353,1.50163E+14,School,Schmid Elem School,City of Chicago SD 299,Chicago,ELEMENTARY,43.4,NA,14.4,NA,6.7,NA,21.7,NA,Schmid,610178,9755 S GREENWOOD AVE,ES,41.71698887,-87.59693188,c(-87.5969318817757,PULLMAN
354,1.50163E+14,School,Schubert Elem School,City of Chicago SD 299,Chicago,ELEMENTARY,39.9,39.3,8,8,5.6,5.9,22.7,23.6,Schubert,610165,2727 N LONG AVE,ES,41.93040332,-87.76119047,c(-87.7611904688155,BELMONT CRAGIN
355,1.50163E+14,School,Seward Elem Communication Arts Ac,City of Chicago SD 299,Chicago,ELEMENTARY,39.2,39.3,15.6,16.2,5.4,5.2,27.9,29.2,Seward,610167,4600 S HERMITAGE AVE,ES,41.81033324,-87.66877201,c(-87.6687720115163,NEW CITY
356,1.50163E+14,School,Sheridan Elem Math & Science Acad,City of Chicago SD 299,Chicago,ELEMENTARY,10,25,60.1,59.2,51.7,43.4,83.8,91.3,Sheridan,610081,533 W 27TH ST,ES,41.84440016,-87.64133981,c(-87.6413398057554,BRIDGEPORT
357,1.50163E+14,School,Sherman Elem School,City of Chicago SD 299,Chicago,ELEMENTARY,47.3,51.9,2.3,4,1.5,4,4.3,NA,Sherman,610172,1000 W 52ND ST,ES,41.79976621,-87.65022145,c(-87.6502214456532,NEW CITY
358,1.50163E+14,School,Sherwood Elem School,City of Chicago SD 299,Chicago,ELEMENTARY,30.9,NA,5.6,NA,4.9,NA,18.6,NA,Sherwood,610173,245 W 57TH ST,ES,41.79080024,-87.63227938,c(-87.6322793822905,ENGLEWOOD
359,1.50163E+14,School,Shields Elem School,City of Chicago SD 299,Chicago,ELEMENTARY,45.2,45,19.9,19.4,18.1,16.9,NA,NA,Shields,610174,4250 S ROCKWELL ST,ES,41.81590949,-87.68964724,c(-87.6896472352398,BRIGHTON PARK
360,1.50163E+14,School,Shields Middle School,City of Chicago SD 299,Chicago,ELEMENTARY,38.1,37.4,13.2,13.2,6.8,7,40.2,40.2,Shields,610174,4250 S ROCKWELL ST,ES,41.81590949,-87.68964724,c(-87.6896472352398,BRIGHTON PARK
361,1.50163E+14,School,Shoesmith Elem School,City of Chicago SD 299,Chicago,ELEMENTARY,42,NA,17.8,NA,8.6,NA,24.1,NA,Shoesmith,610175,1330 E 50TH ST,ES,41.80429402,-87.59390494,c(-87.5939049415999,KENWOOD
362,1.50163E+14,School,Shoop Math-Sci Tech Elem Academy,City of Chicago SD 299,Chicago,ELEMENTARY,30.1,NA,14.5,NA,3.9,NA,10.2,NA,Shoop,610176,11140 S BISHOP ST,ES,41.69091888,-87.65866905,c(-87.6586690520218,MORGAN PARK
363,1.50163E+14,School,Skinner Elem School,City of Chicago SD 299,Chicago,ELEMENTARY,13.8,16.9,62.3,52.4,61.9,50,70.4,60,Skinner,610177,1260 W ADAMS ST,ES,41.87910254,-87.65941898,c(-87.659418976157,NEAR WEST SIDE
364,1.50163E+14,School,Skinner North Elem Sch,City of Chicago SD 299,Chicago,ELEMENTARY,13.2,NA,94,90.9,92.1,81.8,97.1,NA,Skinner,610177,1260 W ADAMS ST,ES,41.87910254,-87.65941898,c(-87.659418976157,NEAR WEST SIDE
365,1.50163E+14,School,Smith  W Elem School,City of Chicago SD 299,Chicago,ELEMENTARY,16.3,NA,9.6,NA,3.2,NA,15.6,NA,Smith,609978,744 E 103RD ST,ES,41.70755762,-87.60466041,c(-87.6046604081799,PULLMAN
366,1.50163E+14,School,Smyser Elem School,City of Chicago SD 299,Chicago,ELEMENTARY,34,38.2,28.7,26,17.7,14.2,50.3,48.2,Smyser,610179,4310 N MELVINA AVE,ES,41.95886804,-87.78197454,c(-87.781974537526,PORTAGE PARK
367,1.50163E+14,School,Smyth  J Elem School,City of Chicago SD 299,Chicago,ELEMENTARY,46,62.5,6.6,8.3,1.7,16.7,12.5,NA,Smyth,610180,1059 W 13TH ST,ES,41.86535102,-87.65344503,c(-87.6534450266778,NEAR WEST SIDE
368,1.50163E+14,School,Solomon Elem School,City of Chicago SD 299,Chicago,ELEMENTARY,30.9,51.9,47.2,33.3,41,18.5,59.4,20,Solomon,610182,6206 N HAMLIN AVE,ES,41.99394233,-87.72404263,c(-87.724042633054,NORTH PARK
369,1.50163E+14,School,Sor Juana Ines de la Cruz,City of Chicago SD 299,Chicago,ELEMENTARY,13.3,13.3,52.8,52.6,45.2,44.5,77.2,76.6,Sor Juana,610589,4034 W 56TH ST,ES,41.791464,-87.72447,c(-87.7244704643672,WEST ELSDON
370,1.50163E+14,School,South Loop Elem School,City of Chicago SD 299,Chicago,ELEMENTARY,17.5,17.4,49.2,42.4,44.6,32.2,70.7,63.2,South Loop,609990,1601 S DEARBORN ST,ES,41.85974068,-87.62834919,c(-87.6283491876244,NEAR SOUTH SIDE
371,1.50163E+14,School,South Shore Fine Arts Elem Sch,City of Chicago SD 299,Chicago,ELEMENTARY,38.8,NA,18.5,NA,9.9,NA,19.2,NA,South Shore Es,610530,1415 E 70TH ST,ES,41.76775511,-87.5903961,c(-87.5903961020516,SOUTH SHORE
372,1.50163E+14,School,Spencer Technology Acad Elem Sch,City of Chicago SD 299,Chicago,ELEMENTARY,60.3,38.7,4.4,0,5.6,8.3,14.9,NA,Spencer,610183,214 N LAVERGNE AVE,ES,41.8848764,-87.75044473,c(-87.7504447310499,AUSTIN
373,1.50163E+14,School,Spry Elem Community School,City of Chicago SD 299,Chicago,ELEMENTARY,34.3,33.9,11,11,1.5,1.6,12.5,13,Spry Es,610184,2400 S MARSHALL BLVD,ES,41.84774672,-87.70018447,c(-87.7001844721884,SOUTH LAWNDALE
374,1.50163E+14,School,Stagg Elem School,City of Chicago SD 299,Chicago,ELEMENTARY,33.5,NA,3.7,7.7,1.6,0,18,NA,Stagg,610339,7424 S MORGAN ST,ES,41.75892473,-87.64921669,c(-87.6492166936114,ENGLEWOOD
375,1.50163E+14,School,Stevenson Elem School,City of Chicago SD 299,Chicago,ELEMENTARY,31,30.8,27.9,27.5,13.8,13.9,43.5,42.6,Stevenson,610185,8010 S KOSTNER AVE,ES,41.74710688,-87.73166568,c(-87.7316656849208,ASHBURN
376,1.50163E+14,School,Stone Elem Scholastic Academy,City of Chicago SD 299,Chicago,ELEMENTARY,22.3,26.1,51.6,52.1,37.6,39.6,76.4,72.2,Stone,610191,6239 N LEAVITT ST,ES,41.99535905,-87.68479279,c(-87.6847927859335,WEST RIDGE
377,1.50163E+14,School,Stowe Elem School,City of Chicago SD 299,Chicago,ELEMENTARY,35.8,37,4.1,4.9,2.9,3.4,24.8,24.4,Stowe,610192,3444 W WABANSIA AVE,ES,41.91193808,-87.7133175,c(-87.7133175007,HUMBOLDT PARK
378,1.50163E+14,School,Suder Montessori Elem Magnet Schl,City of Chicago SD 299,Chicago,ELEMENTARY,32.9,26.6,15.3,17.9,13.9,20.5,30.2,33.3,Suder,610405,2022 W WASHINGTON BLVD,ES,41.88321452,-87.67763611,c(-87.6776361122863,NEAR WEST SIDE
379,1.50163E+14,School,Sullivan Elem School,City of Chicago SD 299,Chicago,ELEMENTARY,49.2,56,16.5,16.3,3,4.1,33.7,31.6,Sullivan,NA,NA,NA,NA,NA,c(NA,NA
380,1.50163E+14,School,Sumner Elem Math & Sci Comm Acad,City of Chicago SD 299,Chicago,ELEMENTARY,22.8,NA,33.3,NA,10,NA,38.2,NA,Sumner,610194,4320 W 5TH AVE,ES,41.87082838,-87.73352395,c(-87.7335239510755,WEST GARFIELD PARK
381,1.50163E+14,School,Sutherland Elem School,City of Chicago SD 299,Chicago,ELEMENTARY,18.5,19.4,34.9,38.9,23.5,25,54,64.3,Sutherland,610195,10015 S LEAVITT ST,ES,41.71144507,-87.67682117,c(-87.6768211725656,BEVERLY
382,1.50163E+14,School,Swift Elem Specialty School,City of Chicago SD 299,Chicago,ELEMENTARY,31.2,35.4,23.4,13.8,13.6,3.3,43.8,43.5,Swift,610196,5900 N WINTHROP AVE,ES,41.98913906,-87.65829608,c(-87.6582960802554,EDGEWATER
383,1.50163E+14,School,Talcott Elem School,City of Chicago SD 299,Chicago,ELEMENTARY,23,22.6,27.4,24.3,16.3,16.3,36.6,35.1,Talcott,610197,1840 W OHIO ST,ES,41.89240461,-87.67372272,c(-87.6737227247134,WEST TOWN
384,1.50163E+14,School,Talman Elem School,City of Chicago SD 299,Chicago,ELEMENTARY,38.6,37.9,30.1,30,16,16.5,32.3,32.8,Talman,610249,5450 S TALMAN AVE,ES,41.79404805,-87.69026084,c(-87.6902608387575,GAGE PARK
385,1.50163E+14,School,Tanner Elem School,City of Chicago SD 299,Chicago,ELEMENTARY,51.5,NA,9.7,NA,2.3,NA,19.4,NA,Tanner,610279,7350 S EVANS AVE,ES,41.76067264,-87.60679104,c(-87.606791035188,GREATER GRAND CROSSING
386,1.50163E+14,School,Tarkington Elem School,City of Chicago SD 299,Chicago,ELEMENTARY,31.4,29.1,20.2,21.4,7.5,8.7,24.3,26,Tarkington,610396,3330 W 71ST ST,ES,41.76440708,-87.70644465,c(-87.7064446486183,CHICAGO LAWN
387,1.50163E+14,School,Taylor Elem School,City of Chicago SD 299,Chicago,ELEMENTARY,44.8,43.3,18,19.8,10.8,11.5,25,25,Taylor,610198,9912 S AVENUE H,ES,41.71547038,-87.53297077,c(-87.5329707674937,EAST SIDE
388,1.50163E+14,School,Telpochcalli Elem School,City of Chicago SD 299,Chicago,ELEMENTARY,42.7,44.4,10.8,7.8,9.4,7,31.8,28.6,Telpochcalli,609921,2832 W 24TH BLVD,ES,41.84794743,-87.69600588,c(-87.6960058794166,SOUTH LAWNDALE
389,1.50163E+14,School,Thorp  J N Elem School,City of Chicago SD 299,Chicago,ELEMENTARY,44.7,48.3,10.7,13.2,6.3,5.3,6.3,0,Thorp J,610200,8914 S BUFFALO AVE,ES,41.73332424,-87.54427998,c(-87.5442799762555,SOUTH CHICAGO
390,1.50163E+14,School,Thorp  O A Elem Scholastic Acad,City of Chicago SD 299,Chicago,ELEMENTARY,18.3,18,56.5,52.3,37.9,31.8,61.6,53.1,Thorp O,610201,6024 W WARWICK AVE,ES,41.94857131,-87.77763129,c(-87.7776312947391,DUNNING
391,1.50163E+14,School,Till Elem Math & Science Academy,City of Chicago SD 299,Chicago,ELEMENTARY,55.9,NA,7.2,NA,1.1,NA,16.3,NA,Till,610065,6543 S CHAMPLAIN AVE,ES,41.77542384,-87.60935721,c(-87.6093572110117,WOODLAWN
392,1.50163E+14,School,Tilton Elem School,City of Chicago SD 299,Chicago,ELEMENTARY,45.7,72.7,5.2,6.7,2.6,0,25,NA,Tilton,610202,223 N KEELER AVE,ES,41.88410224,-87.73056638,c(-87.7305663846436,WEST GARFIELD PARK
393,1.50163E+14,School,Turner-Drew Elem Language Academy,City of Chicago SD 299,Chicago,ELEMENTARY,26.1,NA,23.4,NA,11.7,NA,21.7,NA,Turner-Drew,609895,9300 S PRINCETON AVE,ES,41.72560922,-87.63016448,c(-87.6301644788476,ROSELAND
394,1.50163E+14,School,Twain Elem School,City of Chicago SD 299,Chicago,ELEMENTARY,27.3,27.3,43.2,43.8,21.6,21.2,56.7,56.8,Twain,610206,5134 S LOTUS AVE,ES,41.7990464,-87.7589284,c(-87.7589284007224,GARFIELD RIDGE
395,1.50163E+14,School,Vanderpoel Elem Magnet School,City of Chicago SD 299,Chicago,ELEMENTARY,16.5,NA,28.8,NA,9.6,NA,33.9,NA,Vanderpoel,610207,9510 S PROSPECT AVE,ES,41.72081703,-87.66555862,c(-87.6655586213383,BEVERLY
396,1.50163E+14,School,Volta Elem School,City of Chicago SD 299,Chicago,ELEMENTARY,28.9,34.8,7.8,5,8.3,4.3,30.5,26.1,Volta,610209,4950 N AVERS AVE,ES,41.971634,-87.72460522,c(-87.7246052240886,ALBANY PARK
397,1.50163E+14,School,Wacker Elem School,City of Chicago SD 299,Chicago,ELEMENTARY,18,NA,16.3,NA,9.9,NA,38.3,NA,Wacker,610366,9746 S MORGAN ST,ES,41.7161933,-87.64804432,c(-87.648044323475,WASHINGTON HEIGHTS
398,1.50163E+14,School,Wadsworth Elem School,City of Chicago SD 299,Chicago,ELEMENTARY,49.2,NA,11.5,NA,4.1,NA,24.2,NA,Wadsworth,610213,6650 S ELLIS AVE,ES,41.7734779,-87.60101811,c(-87.6010181127759,WOODLAWN
399,1.50163E+14,School,Walsh Elem School,City of Chicago SD 299,Chicago,ELEMENTARY,41.2,41.3,19.7,18.8,11.7,10.9,32.6,35.3,Walsh,610216,2015 S PEORIA ST,ES,41.85483575,-87.64808617,c(-87.6480861741978,LOWER WEST SIDE
400,1.50163E+14,School,Ward  J Elem School,City of Chicago SD 299,Chicago,ELEMENTARY,8.5,41.9,38.7,17.6,35.5,14.7,63.6,NA,Ward J,610217,2701 S SHIELDS AVE,ES,41.84398009,-87.63535579,c(-87.6353557886412,ARMOUR SQUARE
401,1.50163E+14,School,Ward  L Elem School,City of Chicago SD 299,Chicago,ELEMENTARY,56,61.1,5.6,11.1,2.1,0,11.9,NA,Ward L,610133,646 N LAWNDALE AVE,ES,41.89323561,-87.71879729,c(-87.7187972930355,HUMBOLDT PARK
402,1.50163E+14,School,Warren Elem School,City of Chicago SD 299,Chicago,ELEMENTARY,34.3,NA,22,NA,7.7,NA,30.4,NA,Warren,610218,9239 S JEFFERY AVE,ES,41.72676291,-87.57535255,c(-87.575352548793,CALUMET HEIGHTS
403,1.50163E+14,School,Washington  G Elem School,City of Chicago SD 299,Chicago,ELEMENTARY,30.6,30.4,26.3,25.5,19.1,18.3,49.4,51.3,Washington G Es,610219,3611 E 114TH ST,ES,41.68813148,-87.5360153,c(-87.5360152991867,EAST SIDE
404,1.50163E+14,School,Washington  H Elem School,City of Chicago SD 299,Chicago,ELEMENTARY,36.8,NA,16.7,NA,6,NA,16.4,NA,Washington H Es,610124,9130 S UNIVERSITY AVE,ES,41.72853414,-87.59625662,c(-87.5962566166771,BURNSIDE
405,1.50163E+14,School,Waters Elem School,City of Chicago SD 299,Chicago,ELEMENTARY,19.6,31.8,52.3,29.1,47,16.7,82.5,62.5,Waters,610220,4540 N CAMPBELL AVE,ES,41.9643654,-87.69133251,c(-87.6913325114167,LINCOLN SQUARE
406,1.50163E+14,School,Webster Elem School,City of Chicago SD 299,Chicago,ELEMENTARY,34.9,NA,18.5,NA,9.2,NA,15.4,NA,Webster,610221,4055 W ARTHINGTON ST,ES,41.86991586,-87.72752437,c(-87.7275243744019,WEST GARFIELD PARK
407,1.50163E+14,School,Wells Preparatory Elem Academy,City of Chicago SD 299,Chicago,ELEMENTARY,35,NA,30.9,NA,8.6,NA,18.2,NA,Wells Es,610110,249 E 37TH ST,ES,41.82735527,-87.61977966,c(-87.619779660404,DOUGLAS
408,1.50163E+14,School,Wentworth Elem School,City of Chicago SD 299,Chicago,ELEMENTARY,48,60,5.3,13,4,0,17.3,NA,Wentworth,610223,1340 W 71ST ST,ES,41.7650759,-87.65820484,c(-87.6582048363058,WEST ENGLEWOOD
409,1.50163E+14,School,West Park Elem Academy,City of Chicago SD 299,Chicago,ELEMENTARY,38.2,35,20,20.6,3.9,4,27.2,29.8,West Park,610100,1425 N TRIPP AVE,ES,41.90690721,-87.7324431,c(-87.7324430956503,HUMBOLDT PARK
410,1.50163E+14,School,West Ridge Elem School,City of Chicago SD 299,Chicago,ELEMENTARY,35.2,45,26.7,16.7,20.5,11.5,45.8,28.1,West Ridge,610542,6700 N WHIPPLE ST,ES,42.00295899,-87.70591721,c(-87.7059172053333,WEST RIDGE
411,1.50163E+14,School,Westcott Elem School,City of Chicago SD 299,Chicago,ELEMENTARY,41.3,NA,10,NA,2.4,NA,25.5,NA,Westcott,610300,409 W 80TH ST,ES,41.74886823,-87.63475052,c(-87.6347505165275,CHATHAM
412,1.50163E+14,School,Whistler Elem School,City of Chicago SD 299,Chicago,ELEMENTARY,31,NA,20.9,NA,12.2,NA,21.2,NA,Whistler,610225,11533 S ADA ST,ES,41.68390701,-87.65538382,c(-87.6553838211365,WEST PULLMAN
413,1.50163E+14,School,White Elem Career Academy,City of Chicago SD 299,Chicago,ELEMENTARY,54.8,NA,12.2,NA,1.3,NA,20,NA,White,610315,1136 W 122ND ST,ES,41.67230941,-87.65053854,c(-87.650538541879,WEST PULLMAN
414,1.50163E+14,School,Whitney Elem School,City of Chicago SD 299,Chicago,ELEMENTARY,33.8,33.6,19.3,19,13.1,12.9,43.8,43.4,Whitney,610227,2815 S KOMENSKY AVE,ES,41.84008043,-87.72554564,c(-87.7255456427176,SOUTH LAWNDALE
415,1.50163E+14,School,Whittier Elem School,City of Chicago SD 299,Chicago,ELEMENTARY,42.9,42.9,4.2,4.3,4.2,4.3,22.9,20.6,Whittier,610228,1900 W 23RD ST,ES,41.85048089,-87.67339165,c(-87.6733916543221,LOWER WEST SIDE
416,1.50163E+14,School,Wildwood Elem School,City of Chicago SD 299,Chicago,ELEMENTARY,13.2,18.6,57.2,57.9,55.1,31.6,66.7,50,Wildwood,610230,6950 N HIAWATHA AVE,ES,42.00749067,-87.77834486,c(-87.7783448615314,FOREST GLEN
417,1.50163E+14,School,Woodlawn Elem Community School,City of Chicago SD 299,Chicago,ELEMENTARY,36.8,NA,33,NA,12.5,NA,48,NA,Woodlawn,609977,6657 S KIMBARK AVE,ES,41.77336553,-87.594392,c(-87.5943919955956,WOODLAWN
418,1.50163E+14,School,Woodson South Elem School,City of Chicago SD 299,Chicago,ELEMENTARY,58.6,NA,7.8,NA,5.6,NA,15.5,NA,Woodson,610345,4414 S EVANS AVE,ES,41.8144988,-87.60841877,c(-87.6084187684696,GRAND BOULEVARD
419,1.50163E+14,School,Yates Elem School,City of Chicago SD 299,Chicago,ELEMENTARY,40.3,44.5,15.3,14.8,8,8.1,23.7,24.5,Yates,610234,1839 N RICHMOND ST,ES,41.91503855,-87.70028031,c(-87.7002803125981,LOGAN SQUARE
420,1.50163E+14,School,Young Elem School,City of Chicago SD 299,Chicago,ELEMENTARY,46.6,51.9,9.4,8.5,3,1.7,11.5,12.5,Young Es,610235,1434 N PARKSIDE AVE,ES,41.90679057,-87.76714285,c(-87.7671428460121,AUSTIN
421,1.50163E+14,School,Zapata Elem Academy,City of Chicago SD 299,Chicago,ELEMENTARY,32.2,32.2,31.3,31.3,20,20,52.5,52.5,Zapata,609973,2728 S KOSTNER AVE,ES,41.8413938,-87.73431332,c(-87.7343133238025,SOUTH LAWNDALE
